{
"type": "FeatureCollection",
"name": "gdf_nodes",
"crs": { "type": "name", "properties": { "name": "urn:ogc:def:crs:OGC:1.3:CRS84" } },
"features": [
{ "type": "Feature", "properties": { "osmid": 21154171, "y": 53.8301396, "x": -1.7769513, "highway": "traffic_signals", "street_count": 4 }, "geometry": { "type": "Point", "coordinates": [ -1.7769513, 53.8301396 ] } },
{ "type": "Feature", "properties": { "osmid": 21154172, "y": 53.8277259, "x": -1.7801524, "highway": "traffic_signals", "street_count": 3 }, "geometry": { "type": "Point", "coordinates": [ -1.7801524, 53.8277259 ] } },
{ "type": "Feature", "properties": { "osmid": 21154181, "y": 53.8287531, "x": -1.7808202, "highway": null, "street_count": 4 }, "geometry": { "type": "Point", "coordinates": [ -1.7808202, 53.8287531 ] } },
{ "type": "Feature", "properties": { "osmid": 304918609, "y": 53.8290836, "x": -1.7782698, "highway": null, "street_count": 3 }, "geometry": { "type": "Point", "coordinates": [ -1.7782698, 53.8290836 ] } },
{ "type": "Feature", "properties": { "osmid": 304918610, "y": 53.8299791, "x": -1.7783792, "highway": null, "street_count": 3 }, "geometry": { "type": "Point", "coordinates": [ -1.7783792, 53.8299791 ] } },
{ "type": "Feature", "properties": { "osmid": 304918611, "y": 53.8297557, "x": -1.7783538, "highway": null, "street_count": 3 }, "geometry": { "type": "Point", "coordinates": [ -1.7783538, 53.8297557 ] } },
{ "type": "Feature", "properties": { "osmid": 304918613, "y": 53.8292734, "x": -1.781255, "highway": null, "street_count": 3 }, "geometry": { "type": "Point", "coordinates": [ -1.781255, 53.8292734 ] } },
{ "type": "Feature", "properties": { "osmid": 353012953, "y": 53.8287925, "x": -1.7836571, "highway": null, "street_count": 3 }, "geometry": { "type": "Point", "coordinates": [ -1.7836571, 53.8287925 ] } },
{ "type": "Feature", "properties": { "osmid": 353012957, "y": 53.8285608, "x": -1.7844897, "highway": null, "street_count": 3 }, "geometry": { "type": "Point", "coordinates": [ -1.7844897, 53.8285608 ] } },
{ "type": "Feature", "properties": { "osmid": 353012961, "y": 53.8279711, "x": -1.7847394, "highway": null, "street_count": 3 }, "geometry": { "type": "Point", "coordinates": [ -1.7847394, 53.8279711 ] } },
{ "type": "Feature", "properties": { "osmid": 353013051, "y": 53.8297299, "x": -1.7840946, "highway": null, "street_count": 3 }, "geometry": { "type": "Point", "coordinates": [ -1.7840946, 53.8297299 ] } },
{ "type": "Feature", "properties": { "osmid": 353014072, "y": 53.8301437, "x": -1.7848374, "highway": null, "street_count": 3 }, "geometry": { "type": "Point", "coordinates": [ -1.7848374, 53.8301437 ] } },
{ "type": "Feature", "properties": { "osmid": 430980765, "y": 53.8304768, "x": -1.7786364, "highway": null, "street_count": 3 }, "geometry": { "type": "Point", "coordinates": [ -1.7786364, 53.8304768 ] } },
{ "type": "Feature", "properties": { "osmid": 520475689, "y": 53.8285385, "x": -1.7806644, "highway": null, "street_count": 3 }, "geometry": { "type": "Point", "coordinates": [ -1.7806644, 53.8285385 ] } },
{ "type": "Feature", "properties": { "osmid": 520475694, "y": 53.8281257, "x": -1.7824576, "highway": null, "street_count": 4 }, "geometry": { "type": "Point", "coordinates": [ -1.7824576, 53.8281257 ] } },
{ "type": "Feature", "properties": { "osmid": 520475696, "y": 53.8276399, "x": -1.7846621, "highway": null, "street_count": 3 }, "geometry": { "type": "Point", "coordinates": [ -1.7846621, 53.8276399 ] } },
{ "type": "Feature", "properties": { "osmid": 520475698, "y": 53.8288617, "x": -1.782991, "highway": null, "street_count": 3 }, "geometry": { "type": "Point", "coordinates": [ -1.782991, 53.8288617 ] } },
{ "type": "Feature", "properties": { "osmid": 520475701, "y": 53.8283224, "x": -1.7826788, "highway": null, "street_count": 3 }, "geometry": { "type": "Point", "coordinates": [ -1.7826788, 53.8283224 ] } },
{ "type": "Feature", "properties": { "osmid": 520475703, "y": 53.8282499, "x": -1.782918, "highway": null, "street_count": 1 }, "geometry": { "type": "Point", "coordinates": [ -1.782918, 53.8282499 ] } },
{ "type": "Feature", "properties": { "osmid": 520475709, "y": 53.8279034, "x": -1.7837379, "highway": null, "street_count": 3 }, "geometry": { "type": "Point", "coordinates": [ -1.7837379, 53.8279034 ] } },
{ "type": "Feature", "properties": { "osmid": 520827197, "y": 53.830687, "x": -1.7870048, "highway": null, "street_count": 3 }, "geometry": { "type": "Point", "coordinates": [ -1.7870048, 53.830687 ] } },
{ "type": "Feature", "properties": { "osmid": 520827208, "y": 53.8303377, "x": -1.7861624, "highway": null, "street_count": 3 }, "geometry": { "type": "Point", "coordinates": [ -1.7861624, 53.8303377 ] } },
{ "type": "Feature", "properties": { "osmid": 520827213, "y": 53.8290557, "x": -1.7826402, "highway": null, "street_count": 1 }, "geometry": { "type": "Point", "coordinates": [ -1.7826402, 53.8290557 ] } },
{ "type": "Feature", "properties": { "osmid": 520827215, "y": 53.8293616, "x": -1.782494, "highway": null, "street_count": 3 }, "geometry": { "type": "Point", "coordinates": [ -1.782494, 53.8293616 ] } },
{ "type": "Feature", "properties": { "osmid": 520827216, "y": 53.8294343, "x": -1.7821653, "highway": null, "street_count": 3 }, "geometry": { "type": "Point", "coordinates": [ -1.7821653, 53.8294343 ] } },
{ "type": "Feature", "properties": { "osmid": 520827217, "y": 53.8295779, "x": -1.7815782, "highway": null, "street_count": 3 }, "geometry": { "type": "Point", "coordinates": [ -1.7815782, 53.8295779 ] } },
{ "type": "Feature", "properties": { "osmid": 520827222, "y": 53.8297866, "x": -1.7825572, "highway": null, "street_count": 3 }, "geometry": { "type": "Point", "coordinates": [ -1.7825572, 53.8297866 ] } },
{ "type": "Feature", "properties": { "osmid": 520827228, "y": 53.8297378, "x": -1.782982, "highway": null, "street_count": 4 }, "geometry": { "type": "Point", "coordinates": [ -1.782982, 53.8297378 ] } },
{ "type": "Feature", "properties": { "osmid": 520827230, "y": 53.829293, "x": -1.7827657, "highway": null, "street_count": 3 }, "geometry": { "type": "Point", "coordinates": [ -1.7827657, 53.829293 ] } },
{ "type": "Feature", "properties": { "osmid": 520827232, "y": 53.8297568, "x": -1.7833442, "highway": null, "street_count": 3 }, "geometry": { "type": "Point", "coordinates": [ -1.7833442, 53.8297568 ] } },
{ "type": "Feature", "properties": { "osmid": 520827237, "y": 53.828927, "x": -1.7829547, "highway": null, "street_count": 1 }, "geometry": { "type": "Point", "coordinates": [ -1.7829547, 53.828927 ] } },
{ "type": "Feature", "properties": { "osmid": 520827239, "y": 53.8297426, "x": -1.7837022, "highway": null, "street_count": 3 }, "geometry": { "type": "Point", "coordinates": [ -1.7837022, 53.8297426 ] } },
{ "type": "Feature", "properties": { "osmid": 520827241, "y": 53.8288833, "x": -1.7833161, "highway": null, "street_count": 1 }, "geometry": { "type": "Point", "coordinates": [ -1.7833161, 53.8288833 ] } },
{ "type": "Feature", "properties": { "osmid": 520827245, "y": 53.8297171, "x": -1.7845673, "highway": null, "street_count": 3 }, "geometry": { "type": "Point", "coordinates": [ -1.7845673, 53.8297171 ] } },
{ "type": "Feature", "properties": { "osmid": 520827275, "y": 53.829671, "x": -1.7864323, "highway": null, "street_count": 1 }, "geometry": { "type": "Point", "coordinates": [ -1.7864323, 53.829671 ] } },
{ "type": "Feature", "properties": { "osmid": 520827277, "y": 53.828787, "x": -1.7829541, "highway": null, "street_count": 3 }, "geometry": { "type": "Point", "coordinates": [ -1.7829541, 53.828787 ] } },
{ "type": "Feature", "properties": { "osmid": 520827283, "y": 53.8284421, "x": -1.7827497, "highway": null, "street_count": 3 }, "geometry": { "type": "Point", "coordinates": [ -1.7827497, 53.8284421 ] } },
{ "type": "Feature", "properties": { "osmid": 520827284, "y": 53.8286731, "x": -1.7835188, "highway": null, "street_count": 3 }, "geometry": { "type": "Point", "coordinates": [ -1.7835188, 53.8286731 ] } },
{ "type": "Feature", "properties": { "osmid": 520827285, "y": 53.8283211, "x": -1.7833115, "highway": null, "street_count": 3 }, "geometry": { "type": "Point", "coordinates": [ -1.7833115, 53.8283211 ] } },
{ "type": "Feature", "properties": { "osmid": 520827286, "y": 53.8291359, "x": -1.7817813, "highway": null, "street_count": 3 }, "geometry": { "type": "Point", "coordinates": [ -1.7817813, 53.8291359 ] } },
{ "type": "Feature", "properties": { "osmid": 520827287, "y": 53.829259, "x": -1.7812421, "highway": null, "street_count": 3 }, "geometry": { "type": "Point", "coordinates": [ -1.7812421, 53.829259 ] } },
{ "type": "Feature", "properties": { "osmid": 520827289, "y": 53.8284724, "x": -1.7806204, "highway": null, "street_count": 3 }, "geometry": { "type": "Point", "coordinates": [ -1.7806204, 53.8284724 ] } },
{ "type": "Feature", "properties": { "osmid": 520827293, "y": 53.8284477, "x": -1.7791582, "highway": null, "street_count": 3 }, "geometry": { "type": "Point", "coordinates": [ -1.7791582, 53.8284477 ] } },
{ "type": "Feature", "properties": { "osmid": 520827294, "y": 53.8292199, "x": -1.7797892, "highway": null, "street_count": 3 }, "geometry": { "type": "Point", "coordinates": [ -1.7797892, 53.8292199 ] } },
{ "type": "Feature", "properties": { "osmid": 520827295, "y": 53.8287298, "x": -1.779393, "highway": null, "street_count": 3 }, "geometry": { "type": "Point", "coordinates": [ -1.779393, 53.8287298 ] } },
{ "type": "Feature", "properties": { "osmid": 520827296, "y": 53.8289636, "x": -1.779593, "highway": null, "street_count": 3 }, "geometry": { "type": "Point", "coordinates": [ -1.779593, 53.8289636 ] } },
{ "type": "Feature", "properties": { "osmid": 520827297, "y": 53.8290064, "x": -1.7810307, "highway": null, "street_count": 3 }, "geometry": { "type": "Point", "coordinates": [ -1.7810307, 53.8290064 ] } },
{ "type": "Feature", "properties": { "osmid": 520827298, "y": 53.8294337, "x": -1.7783785, "highway": null, "street_count": 3 }, "geometry": { "type": "Point", "coordinates": [ -1.7783785, 53.8294337 ] } },
{ "type": "Feature", "properties": { "osmid": 520827299, "y": 53.8292294, "x": -1.7797403, "highway": null, "street_count": 3 }, "geometry": { "type": "Point", "coordinates": [ -1.7797403, 53.8292294 ] } },
{ "type": "Feature", "properties": { "osmid": 520827305, "y": 53.8295082, "x": -1.7798645, "highway": null, "street_count": 4 }, "geometry": { "type": "Point", "coordinates": [ -1.7798645, 53.8295082 ] } },
{ "type": "Feature", "properties": { "osmid": 520827309, "y": 53.8304632, "x": -1.7805885, "highway": null, "street_count": 3 }, "geometry": { "type": "Point", "coordinates": [ -1.7805885, 53.8304632 ] } },
{ "type": "Feature", "properties": { "osmid": 520827316, "y": 53.8300497, "x": -1.7820829, "highway": null, "street_count": 3 }, "geometry": { "type": "Point", "coordinates": [ -1.7820829, 53.8300497 ] } },
{ "type": "Feature", "properties": { "osmid": 520827319, "y": 53.829824, "x": -1.7818351, "highway": null, "street_count": 3 }, "geometry": { "type": "Point", "coordinates": [ -1.7818351, 53.829824 ] } },
{ "type": "Feature", "properties": { "osmid": 520827320, "y": 53.8302217, "x": -1.7803874, "highway": null, "street_count": 4 }, "geometry": { "type": "Point", "coordinates": [ -1.7803874, 53.8302217 ] } },
{ "type": "Feature", "properties": { "osmid": 520827321, "y": 53.8295085, "x": -1.7815051, "highway": null, "street_count": 3 }, "geometry": { "type": "Point", "coordinates": [ -1.7815051, 53.8295085 ] } },
{ "type": "Feature", "properties": { "osmid": 520827322, "y": 53.8297866, "x": -1.7800532, "highway": null, "street_count": 4 }, "geometry": { "type": "Point", "coordinates": [ -1.7800532, 53.8297866 ] } },
{ "type": "Feature", "properties": { "osmid": 520827323, "y": 53.830301, "x": -1.7823687, "highway": null, "street_count": 3 }, "geometry": { "type": "Point", "coordinates": [ -1.7823687, 53.830301 ] } },
{ "type": "Feature", "properties": { "osmid": 520827325, "y": 53.8308706, "x": -1.7803292, "highway": null, "street_count": 3 }, "geometry": { "type": "Point", "coordinates": [ -1.7803292, 53.8308706 ] } },
{ "type": "Feature", "properties": { "osmid": 520827328, "y": 53.830739, "x": -1.7807846, "highway": null, "street_count": 3 }, "geometry": { "type": "Point", "coordinates": [ -1.7807846, 53.830739 ] } },
{ "type": "Feature", "properties": { "osmid": 520827330, "y": 53.8301112, "x": -1.7807805, "highway": null, "street_count": 3 }, "geometry": { "type": "Point", "coordinates": [ -1.7807805, 53.8301112 ] } },
{ "type": "Feature", "properties": { "osmid": 520827332, "y": 53.8297092, "x": -1.7804852, "highway": null, "street_count": 3 }, "geometry": { "type": "Point", "coordinates": [ -1.7804852, 53.8297092 ] } },
{ "type": "Feature", "properties": { "osmid": 520827334, "y": 53.8303508, "x": -1.7824254, "highway": null, "street_count": 3 }, "geometry": { "type": "Point", "coordinates": [ -1.7824254, 53.8303508 ] } },
{ "type": "Feature", "properties": { "osmid": 520827342, "y": 53.8302475, "x": -1.7830085, "highway": null, "street_count": 3 }, "geometry": { "type": "Point", "coordinates": [ -1.7830085, 53.8302475 ] } },
{ "type": "Feature", "properties": { "osmid": 520827343, "y": 53.8307535, "x": -1.7835885, "highway": null, "street_count": 1 }, "geometry": { "type": "Point", "coordinates": [ -1.7835885, 53.8307535 ] } },
{ "type": "Feature", "properties": { "osmid": 520827344, "y": 53.8305604, "x": -1.7833884, "highway": null, "street_count": 3 }, "geometry": { "type": "Point", "coordinates": [ -1.7833884, 53.8305604 ] } },
{ "type": "Feature", "properties": { "osmid": 520827345, "y": 53.8305454, "x": -1.7838068, "highway": null, "street_count": 1 }, "geometry": { "type": "Point", "coordinates": [ -1.7838068, 53.8305454 ] } },
{ "type": "Feature", "properties": { "osmid": 520827353, "y": 53.8305949, "x": -1.7813229, "highway": null, "street_count": 3 }, "geometry": { "type": "Point", "coordinates": [ -1.7813229, 53.8305949 ] } },
{ "type": "Feature", "properties": { "osmid": 520827377, "y": 53.830633, "x": -1.7827696, "highway": null, "street_count": 3 }, "geometry": { "type": "Point", "coordinates": [ -1.7827696, 53.830633 ] } },
{ "type": "Feature", "properties": { "osmid": 520827379, "y": 53.8307386, "x": -1.7828957, "highway": "traffic_signals", "street_count": 3 }, "geometry": { "type": "Point", "coordinates": [ -1.7828957, 53.8307386 ] } },
{ "type": "Feature", "properties": { "osmid": 530719242, "y": 53.8268558, "x": -1.7796047, "highway": null, "street_count": 1 }, "geometry": { "type": "Point", "coordinates": [ -1.7796047, 53.8268558 ] } },
{ "type": "Feature", "properties": { "osmid": 530965881, "y": 53.8299439, "x": -1.7881642, "highway": null, "street_count": 4 }, "geometry": { "type": "Point", "coordinates": [ -1.7881642, 53.8299439 ] } },
{ "type": "Feature", "properties": { "osmid": 530965889, "y": 53.8279852, "x": -1.7849343, "highway": null, "street_count": 3 }, "geometry": { "type": "Point", "coordinates": [ -1.7849343, 53.8279852 ] } },
{ "type": "Feature", "properties": { "osmid": 530965892, "y": 53.8262774, "x": -1.7813789, "highway": null, "street_count": 3 }, "geometry": { "type": "Point", "coordinates": [ -1.7813789, 53.8262774 ] } },
{ "type": "Feature", "properties": { "osmid": 530965893, "y": 53.8260797, "x": -1.7813108, "highway": null, "street_count": 3 }, "geometry": { "type": "Point", "coordinates": [ -1.7813108, 53.8260797 ] } },
{ "type": "Feature", "properties": { "osmid": 530965894, "y": 53.8262446, "x": -1.7810658, "highway": null, "street_count": 5 }, "geometry": { "type": "Point", "coordinates": [ -1.7810658, 53.8262446 ] } },
{ "type": "Feature", "properties": { "osmid": 530965895, "y": 53.8262676, "x": -1.7801924, "highway": null, "street_count": 5 }, "geometry": { "type": "Point", "coordinates": [ -1.7801924, 53.8262676 ] } },
{ "type": "Feature", "properties": { "osmid": 530965896, "y": 53.8265021, "x": -1.7796534, "highway": null, "street_count": 3 }, "geometry": { "type": "Point", "coordinates": [ -1.7796534, 53.8265021 ] } },
{ "type": "Feature", "properties": { "osmid": 530965898, "y": 53.8259743, "x": -1.7807768, "highway": null, "street_count": 4 }, "geometry": { "type": "Point", "coordinates": [ -1.7807768, 53.8259743 ] } },
{ "type": "Feature", "properties": { "osmid": 530965903, "y": 53.8274854, "x": -1.7807219, "highway": null, "street_count": 3 }, "geometry": { "type": "Point", "coordinates": [ -1.7807219, 53.8274854 ] } },
{ "type": "Feature", "properties": { "osmid": 530965904, "y": 53.8275828, "x": -1.7800934, "highway": null, "street_count": 3 }, "geometry": { "type": "Point", "coordinates": [ -1.7800934, 53.8275828 ] } },
{ "type": "Feature", "properties": { "osmid": 530965905, "y": 53.8274702, "x": -1.7808249, "highway": null, "street_count": 3 }, "geometry": { "type": "Point", "coordinates": [ -1.7808249, 53.8274702 ] } },
{ "type": "Feature", "properties": { "osmid": 530965909, "y": 53.8263082, "x": -1.7802101, "highway": null, "street_count": 3 }, "geometry": { "type": "Point", "coordinates": [ -1.7802101, 53.8263082 ] } },
{ "type": "Feature", "properties": { "osmid": 530965923, "y": 53.8305717, "x": -1.7780129, "highway": null, "street_count": 3 }, "geometry": { "type": "Point", "coordinates": [ -1.7780129, 53.8305717 ] } },
{ "type": "Feature", "properties": { "osmid": 530965924, "y": 53.8303625, "x": -1.7779483, "highway": null, "street_count": 1 }, "geometry": { "type": "Point", "coordinates": [ -1.7779483, 53.8303625 ] } },
{ "type": "Feature", "properties": { "osmid": 530965925, "y": 53.8306214, "x": -1.7776093, "highway": null, "street_count": 3 }, "geometry": { "type": "Point", "coordinates": [ -1.7776093, 53.8306214 ] } },
{ "type": "Feature", "properties": { "osmid": 530965926, "y": 53.8304051, "x": -1.7775283, "highway": null, "street_count": 1 }, "geometry": { "type": "Point", "coordinates": [ -1.7775283, 53.8304051 ] } },
{ "type": "Feature", "properties": { "osmid": 530965930, "y": 53.830202, "x": -1.7784833, "highway": null, "street_count": 3 }, "geometry": { "type": "Point", "coordinates": [ -1.7784833, 53.830202 ] } },
{ "type": "Feature", "properties": { "osmid": 530965931, "y": 53.8303053, "x": -1.7779022, "highway": null, "street_count": 1 }, "geometry": { "type": "Point", "coordinates": [ -1.7779022, 53.8303053 ] } },
{ "type": "Feature", "properties": { "osmid": 530965933, "y": 53.8300514, "x": -1.7784128, "highway": null, "street_count": 3 }, "geometry": { "type": "Point", "coordinates": [ -1.7784128, 53.8300514 ] } },
{ "type": "Feature", "properties": { "osmid": 530965934, "y": 53.8306868, "x": -1.7787585, "highway": null, "street_count": 3 }, "geometry": { "type": "Point", "coordinates": [ -1.7787585, 53.8306868 ] } },
{ "type": "Feature", "properties": { "osmid": 530965935, "y": 53.8303472, "x": -1.7799389, "highway": null, "street_count": 3 }, "geometry": { "type": "Point", "coordinates": [ -1.7799389, 53.8303472 ] } },
{ "type": "Feature", "properties": { "osmid": 530965936, "y": 53.8298556, "x": -1.7795558, "highway": null, "street_count": 3 }, "geometry": { "type": "Point", "coordinates": [ -1.7795558, 53.8298556 ] } },
{ "type": "Feature", "properties": { "osmid": 530965937, "y": 53.8301091, "x": -1.7797604, "highway": null, "street_count": 3 }, "geometry": { "type": "Point", "coordinates": [ -1.7797604, 53.8301091 ] } },
{ "type": "Feature", "properties": { "osmid": 530965939, "y": 53.8299762, "x": -1.7788884, "highway": null, "street_count": 3 }, "geometry": { "type": "Point", "coordinates": [ -1.7788884, 53.8299762 ] } },
{ "type": "Feature", "properties": { "osmid": 530965940, "y": 53.8301776, "x": -1.7793784, "highway": null, "street_count": 3 }, "geometry": { "type": "Point", "coordinates": [ -1.7793784, 53.8301776 ] } },
{ "type": "Feature", "properties": { "osmid": 530965941, "y": 53.8299113, "x": -1.779222, "highway": null, "street_count": 3 }, "geometry": { "type": "Point", "coordinates": [ -1.779222, 53.8299113 ] } },
{ "type": "Feature", "properties": { "osmid": 530965950, "y": 53.8308309, "x": -1.778078, "highway": null, "street_count": 3 }, "geometry": { "type": "Point", "coordinates": [ -1.778078, 53.8308309 ] } },
{ "type": "Feature", "properties": { "osmid": 542759479, "y": 53.8251563, "x": -1.7851024, "highway": null, "street_count": 3 }, "geometry": { "type": "Point", "coordinates": [ -1.7851024, 53.8251563 ] } },
{ "type": "Feature", "properties": { "osmid": 542759482, "y": 53.8249963, "x": -1.785062, "highway": null, "street_count": 1 }, "geometry": { "type": "Point", "coordinates": [ -1.785062, 53.8249963 ] } },
{ "type": "Feature", "properties": { "osmid": 552555016, "y": 53.8264475, "x": -1.7796309, "highway": null, "street_count": 3 }, "geometry": { "type": "Point", "coordinates": [ -1.7796309, 53.8264475 ] } },
{ "type": "Feature", "properties": { "osmid": 552555022, "y": 53.8269325, "x": -1.7780629, "highway": null, "street_count": 3 }, "geometry": { "type": "Point", "coordinates": [ -1.7780629, 53.8269325 ] } },
{ "type": "Feature", "properties": { "osmid": 552555025, "y": 53.8265095, "x": -1.7773489, "highway": null, "street_count": 1 }, "geometry": { "type": "Point", "coordinates": [ -1.7773489, 53.8265095 ] } },
{ "type": "Feature", "properties": { "osmid": 552555028, "y": 53.8265381, "x": -1.777734, "highway": null, "street_count": 3 }, "geometry": { "type": "Point", "coordinates": [ -1.777734, 53.8265381 ] } },
{ "type": "Feature", "properties": { "osmid": 552555038, "y": 53.8262223, "x": -1.779539, "highway": null, "street_count": 3 }, "geometry": { "type": "Point", "coordinates": [ -1.779539, 53.8262223 ] } },
{ "type": "Feature", "properties": { "osmid": 552555040, "y": 53.8267368, "x": -1.7778952, "highway": null, "street_count": 3 }, "geometry": { "type": "Point", "coordinates": [ -1.7778952, 53.8267368 ] } },
{ "type": "Feature", "properties": { "osmid": 552555042, "y": 53.8263351, "x": -1.7791997, "highway": null, "street_count": 3 }, "geometry": { "type": "Point", "coordinates": [ -1.7791997, 53.8263351 ] } },
{ "type": "Feature", "properties": { "osmid": 552555045, "y": 53.8261272, "x": -1.7790199, "highway": null, "street_count": 3 }, "geometry": { "type": "Point", "coordinates": [ -1.7790199, 53.8261272 ] } },
{ "type": "Feature", "properties": { "osmid": 552555048, "y": 53.8259085, "x": -1.7794114, "highway": null, "street_count": 3 }, "geometry": { "type": "Point", "coordinates": [ -1.7794114, 53.8259085 ] } },
{ "type": "Feature", "properties": { "osmid": 552555054, "y": 53.8259711, "x": -1.7789227, "highway": null, "street_count": 3 }, "geometry": { "type": "Point", "coordinates": [ -1.7789227, 53.8259711 ] } },
{ "type": "Feature", "properties": { "osmid": 552555061, "y": 53.8262751, "x": -1.7777693, "highway": null, "street_count": 3 }, "geometry": { "type": "Point", "coordinates": [ -1.7777693, 53.8262751 ] } },
{ "type": "Feature", "properties": { "osmid": 552555065, "y": 53.8260379, "x": -1.7775872, "highway": null, "street_count": 4 }, "geometry": { "type": "Point", "coordinates": [ -1.7775872, 53.8260379 ] } },
{ "type": "Feature", "properties": { "osmid": 552555068, "y": 53.825557, "x": -1.7792846, "highway": null, "street_count": 3 }, "geometry": { "type": "Point", "coordinates": [ -1.7792846, 53.825557 ] } },
{ "type": "Feature", "properties": { "osmid": 552555069, "y": 53.8259543, "x": -1.7790234, "highway": null, "street_count": 3 }, "geometry": { "type": "Point", "coordinates": [ -1.7790234, 53.8259543 ] } },
{ "type": "Feature", "properties": { "osmid": 552555072, "y": 53.8256792, "x": -1.7788835, "highway": null, "street_count": 3 }, "geometry": { "type": "Point", "coordinates": [ -1.7788835, 53.8256792 ] } },
{ "type": "Feature", "properties": { "osmid": 552555073, "y": 53.8258036, "x": -1.7774139, "highway": null, "street_count": 3 }, "geometry": { "type": "Point", "coordinates": [ -1.7774139, 53.8258036 ] } },
{ "type": "Feature", "properties": { "osmid": 552555076, "y": 53.825279, "x": -1.7791653, "highway": null, "street_count": 3 }, "geometry": { "type": "Point", "coordinates": [ -1.7791653, 53.825279 ] } },
{ "type": "Feature", "properties": { "osmid": 552555079, "y": 53.8255851, "x": -1.7772405, "highway": null, "street_count": 3 }, "geometry": { "type": "Point", "coordinates": [ -1.7772405, 53.8255851 ] } },
{ "type": "Feature", "properties": { "osmid": 552555084, "y": 53.8253516, "x": -1.7770249, "highway": null, "street_count": 3 }, "geometry": { "type": "Point", "coordinates": [ -1.7770249, 53.8253516 ] } },
{ "type": "Feature", "properties": { "osmid": 552555085, "y": 53.8247261, "x": -1.7789398, "highway": null, "street_count": 3 }, "geometry": { "type": "Point", "coordinates": [ -1.7789398, 53.8247261 ] } },
{ "type": "Feature", "properties": { "osmid": 552555086, "y": 53.824878, "x": -1.7784574, "highway": null, "street_count": 3 }, "geometry": { "type": "Point", "coordinates": [ -1.7784574, 53.824878 ] } },
{ "type": "Feature", "properties": { "osmid": 552555087, "y": 53.8251398, "x": -1.7786149, "highway": null, "street_count": 3 }, "geometry": { "type": "Point", "coordinates": [ -1.7786149, 53.8251398 ] } },
{ "type": "Feature", "properties": { "osmid": 552555094, "y": 53.824511, "x": -1.7787921, "highway": null, "street_count": 4 }, "geometry": { "type": "Point", "coordinates": [ -1.7787921, 53.824511 ] } },
{ "type": "Feature", "properties": { "osmid": 552555096, "y": 53.8250728, "x": -1.7769563, "highway": null, "street_count": 3 }, "geometry": { "type": "Point", "coordinates": [ -1.7769563, 53.8250728 ] } },
{ "type": "Feature", "properties": { "osmid": 552555103, "y": 53.8248171, "x": -1.7777548, "highway": null, "street_count": 3 }, "geometry": { "type": "Point", "coordinates": [ -1.7777548, 53.8248171 ] } },
{ "type": "Feature", "properties": { "osmid": 552555111, "y": 53.8246784, "x": -1.7781318, "highway": null, "street_count": 3 }, "geometry": { "type": "Point", "coordinates": [ -1.7781318, 53.8246784 ] } },
{ "type": "Feature", "properties": { "osmid": 552555174, "y": 53.8264628, "x": -1.7771536, "highway": null, "street_count": 3 }, "geometry": { "type": "Point", "coordinates": [ -1.7771536, 53.8264628 ] } },
{ "type": "Feature", "properties": { "osmid": 552555187, "y": 53.8290717, "x": -1.7782847, "highway": null, "street_count": 3 }, "geometry": { "type": "Point", "coordinates": [ -1.7782847, 53.8290717 ] } },
{ "type": "Feature", "properties": { "osmid": 552555213, "y": 53.8286539, "x": -1.7788506, "highway": null, "street_count": 3 }, "geometry": { "type": "Point", "coordinates": [ -1.7788506, 53.8286539 ] } },
{ "type": "Feature", "properties": { "osmid": 552558155, "y": 53.8251122, "x": -1.7801616, "highway": null, "street_count": 3 }, "geometry": { "type": "Point", "coordinates": [ -1.7801616, 53.8251122 ] } },
{ "type": "Feature", "properties": { "osmid": 552558157, "y": 53.825353, "x": -1.7802757, "highway": null, "street_count": 3 }, "geometry": { "type": "Point", "coordinates": [ -1.7802757, 53.825353 ] } },
{ "type": "Feature", "properties": { "osmid": 552558163, "y": 53.8249761, "x": -1.780987, "highway": null, "street_count": 1 }, "geometry": { "type": "Point", "coordinates": [ -1.780987, 53.8249761 ] } },
{ "type": "Feature", "properties": { "osmid": 552558164, "y": 53.8250353, "x": -1.7806411, "highway": null, "street_count": 4 }, "geometry": { "type": "Point", "coordinates": [ -1.7806411, 53.8250353 ] } },
{ "type": "Feature", "properties": { "osmid": 552558173, "y": 53.824987, "x": -1.7809306, "highway": null, "street_count": 3 }, "geometry": { "type": "Point", "coordinates": [ -1.7809306, 53.824987 ] } },
{ "type": "Feature", "properties": { "osmid": 552558175, "y": 53.8249949, "x": -1.7808983, "highway": null, "street_count": 3 }, "geometry": { "type": "Point", "coordinates": [ -1.7808983, 53.8249949 ] } },
{ "type": "Feature", "properties": { "osmid": 552558178, "y": 53.8249341, "x": -1.7808728, "highway": null, "street_count": 1 }, "geometry": { "type": "Point", "coordinates": [ -1.7808728, 53.8249341 ] } },
{ "type": "Feature", "properties": { "osmid": 552558179, "y": 53.8249728, "x": -1.7806139, "highway": null, "street_count": 1 }, "geometry": { "type": "Point", "coordinates": [ -1.7806139, 53.8249728 ] } },
{ "type": "Feature", "properties": { "osmid": 567653109, "y": 53.8293857, "x": -1.7879819, "highway": null, "street_count": 4 }, "geometry": { "type": "Point", "coordinates": [ -1.7879819, 53.8293857 ] } },
{ "type": "Feature", "properties": { "osmid": 567653382, "y": 53.8255007, "x": -1.784616, "highway": null, "street_count": 3 }, "geometry": { "type": "Point", "coordinates": [ -1.784616, 53.8255007 ] } },
{ "type": "Feature", "properties": { "osmid": 567653525, "y": 53.8271246, "x": -1.7882557, "highway": null, "street_count": 3 }, "geometry": { "type": "Point", "coordinates": [ -1.7882557, 53.8271246 ] } },
{ "type": "Feature", "properties": { "osmid": 567653533, "y": 53.8267445, "x": -1.7882404, "highway": null, "street_count": 3 }, "geometry": { "type": "Point", "coordinates": [ -1.7882404, 53.8267445 ] } },
{ "type": "Feature", "properties": { "osmid": 567653541, "y": 53.8256787, "x": -1.7820854, "highway": null, "street_count": 3 }, "geometry": { "type": "Point", "coordinates": [ -1.7820854, 53.8256787 ] } },
{ "type": "Feature", "properties": { "osmid": 567653548, "y": 53.8258802, "x": -1.7809753, "highway": null, "street_count": 3 }, "geometry": { "type": "Point", "coordinates": [ -1.7809753, 53.8258802 ] } },
{ "type": "Feature", "properties": { "osmid": 568029544, "y": 53.8277816, "x": -1.7843914, "highway": null, "street_count": 1 }, "geometry": { "type": "Point", "coordinates": [ -1.7843914, 53.8277816 ] } },
{ "type": "Feature", "properties": { "osmid": 568029545, "y": 53.8277392, "x": -1.7843588, "highway": null, "street_count": 3 }, "geometry": { "type": "Point", "coordinates": [ -1.7843588, 53.8277392 ] } },
{ "type": "Feature", "properties": { "osmid": 568029546, "y": 53.827815, "x": -1.7840722, "highway": null, "street_count": 3 }, "geometry": { "type": "Point", "coordinates": [ -1.7840722, 53.827815 ] } },
{ "type": "Feature", "properties": { "osmid": 568029547, "y": 53.8278718, "x": -1.7841262, "highway": null, "street_count": 1 }, "geometry": { "type": "Point", "coordinates": [ -1.7841262, 53.8278718 ] } },
{ "type": "Feature", "properties": { "osmid": 568029554, "y": 53.8279455, "x": -1.7841199, "highway": null, "street_count": 1 }, "geometry": { "type": "Point", "coordinates": [ -1.7841199, 53.8279455 ] } },
{ "type": "Feature", "properties": { "osmid": 583067820, "y": 53.8241891, "x": -1.7798784, "highway": null, "street_count": 3 }, "geometry": { "type": "Point", "coordinates": [ -1.7798784, 53.8241891 ] } },
{ "type": "Feature", "properties": { "osmid": 583067828, "y": 53.8245105, "x": -1.7811212, "highway": null, "street_count": 1 }, "geometry": { "type": "Point", "coordinates": [ -1.7811212, 53.8245105 ] } },
{ "type": "Feature", "properties": { "osmid": 752084905, "y": 53.8248099, "x": -1.7838688, "highway": null, "street_count": 3 }, "geometry": { "type": "Point", "coordinates": [ -1.7838688, 53.8248099 ] } },
{ "type": "Feature", "properties": { "osmid": 1038682591, "y": 53.8296172, "x": -1.7775307, "highway": null, "street_count": 3 }, "geometry": { "type": "Point", "coordinates": [ -1.7775307, 53.8296172 ] } },
{ "type": "Feature", "properties": { "osmid": 1616852287, "y": 53.8283453, "x": -1.7793053, "highway": null, "street_count": 3 }, "geometry": { "type": "Point", "coordinates": [ -1.7793053, 53.8283453 ] } },
{ "type": "Feature", "properties": { "osmid": 1777852697, "y": 53.8246375, "x": -1.7769932, "highway": null, "street_count": 1 }, "geometry": { "type": "Point", "coordinates": [ -1.7769932, 53.8246375 ] } },
{ "type": "Feature", "properties": { "osmid": 1777852705, "y": 53.8250644, "x": -1.7790771, "highway": null, "street_count": 3 }, "geometry": { "type": "Point", "coordinates": [ -1.7790771, 53.8250644 ] } },
{ "type": "Feature", "properties": { "osmid": 1777852778, "y": 53.8252233, "x": -1.7795896, "highway": null, "street_count": 3 }, "geometry": { "type": "Point", "coordinates": [ -1.7795896, 53.8252233 ] } },
{ "type": "Feature", "properties": { "osmid": 1777869513, "y": 53.8250113, "x": -1.7790548, "highway": null, "street_count": 3 }, "geometry": { "type": "Point", "coordinates": [ -1.7790548, 53.8250113 ] } },
{ "type": "Feature", "properties": { "osmid": 1777869523, "y": 53.8255353, "x": -1.7797374, "highway": null, "street_count": 3 }, "geometry": { "type": "Point", "coordinates": [ -1.7797374, 53.8255353 ] } },
{ "type": "Feature", "properties": { "osmid": 1777869540, "y": 53.8258426, "x": -1.7801326, "highway": null, "street_count": 1 }, "geometry": { "type": "Point", "coordinates": [ -1.7801326, 53.8258426 ] } },
{ "type": "Feature", "properties": { "osmid": 1777869543, "y": 53.8259061, "x": -1.7799776, "highway": null, "street_count": 3 }, "geometry": { "type": "Point", "coordinates": [ -1.7799776, 53.8259061 ] } },
{ "type": "Feature", "properties": { "osmid": 1777869600, "y": 53.8263316, "x": -1.7775836, "highway": null, "street_count": 3 }, "geometry": { "type": "Point", "coordinates": [ -1.7775836, 53.8263316 ] } },
{ "type": "Feature", "properties": { "osmid": 1777869626, "y": 53.827909, "x": -1.7810315, "highway": null, "street_count": 1 }, "geometry": { "type": "Point", "coordinates": [ -1.7810315, 53.827909 ] } },
{ "type": "Feature", "properties": { "osmid": 2279776972, "y": 53.8286629, "x": -1.7876892, "highway": null, "street_count": 4 }, "geometry": { "type": "Point", "coordinates": [ -1.7876892, 53.8286629 ] } },
{ "type": "Feature", "properties": { "osmid": 2280022017, "y": 53.8305258, "x": -1.7865655, "highway": null, "street_count": 3 }, "geometry": { "type": "Point", "coordinates": [ -1.7865655, 53.8305258 ] } },
{ "type": "Feature", "properties": { "osmid": 2334111332, "y": 53.8298436, "x": -1.7826257, "highway": null, "street_count": 1 }, "geometry": { "type": "Point", "coordinates": [ -1.7826257, 53.8298436 ] } },
{ "type": "Feature", "properties": { "osmid": 2334787817, "y": 53.8253077, "x": -1.7810862, "highway": null, "street_count": 1 }, "geometry": { "type": "Point", "coordinates": [ -1.7810862, 53.8253077 ] } },
{ "type": "Feature", "properties": { "osmid": 2334787829, "y": 53.8252213, "x": -1.7809303, "highway": null, "street_count": 3 }, "geometry": { "type": "Point", "coordinates": [ -1.7809303, 53.8252213 ] } },
{ "type": "Feature", "properties": { "osmid": 2334787832, "y": 53.8252446, "x": -1.7807684, "highway": null, "street_count": 3 }, "geometry": { "type": "Point", "coordinates": [ -1.7807684, 53.8252446 ] } },
{ "type": "Feature", "properties": { "osmid": 2334787845, "y": 53.8253252, "x": -1.7804371, "highway": null, "street_count": 1 }, "geometry": { "type": "Point", "coordinates": [ -1.7804371, 53.8253252 ] } },
{ "type": "Feature", "properties": { "osmid": 2334787850, "y": 53.8254296, "x": -1.7809172, "highway": null, "street_count": 1 }, "geometry": { "type": "Point", "coordinates": [ -1.7809172, 53.8254296 ] } },
{ "type": "Feature", "properties": { "osmid": 2334787853, "y": 53.8253717, "x": -1.78029, "highway": null, "street_count": 3 }, "geometry": { "type": "Point", "coordinates": [ -1.78029, 53.8253717 ] } },
{ "type": "Feature", "properties": { "osmid": 2334787858, "y": 53.825506, "x": -1.7803929, "highway": null, "street_count": 3 }, "geometry": { "type": "Point", "coordinates": [ -1.7803929, 53.825506 ] } },
{ "type": "Feature", "properties": { "osmid": 2334787860, "y": 53.8254708, "x": -1.7805122, "highway": null, "street_count": 1 }, "geometry": { "type": "Point", "coordinates": [ -1.7805122, 53.8254708 ] } },
{ "type": "Feature", "properties": { "osmid": 2334787861, "y": 53.8251827, "x": -1.780362, "highway": null, "street_count": 1 }, "geometry": { "type": "Point", "coordinates": [ -1.780362, 53.8251827 ] } },
{ "type": "Feature", "properties": { "osmid": 2334787866, "y": 53.825229, "x": -1.780217, "highway": null, "street_count": 3 }, "geometry": { "type": "Point", "coordinates": [ -1.780217, 53.825229 ] } },
{ "type": "Feature", "properties": { "osmid": 4591347643, "y": 53.8307579, "x": -1.778788, "highway": null, "street_count": 3 }, "geometry": { "type": "Point", "coordinates": [ -1.778788, 53.8307579 ] } },
{ "type": "Feature", "properties": { "osmid": 4591347645, "y": 53.8307727, "x": -1.7786744, "highway": null, "street_count": 3 }, "geometry": { "type": "Point", "coordinates": [ -1.7786744, 53.8307727 ] } },
{ "type": "Feature", "properties": { "osmid": 4795531641, "y": 53.8307276, "x": -1.7822116, "highway": null, "street_count": 3 }, "geometry": { "type": "Point", "coordinates": [ -1.7822116, 53.8307276 ] } },
{ "type": "Feature", "properties": { "osmid": 4854141248, "y": 53.8277004, "x": -1.7876179, "highway": null, "street_count": 3 }, "geometry": { "type": "Point", "coordinates": [ -1.7876179, 53.8277004 ] } },
{ "type": "Feature", "properties": { "osmid": 7082479255, "y": 53.8271708, "x": -1.7809892, "highway": null, "street_count": 1 }, "geometry": { "type": "Point", "coordinates": [ -1.7809892, 53.8271708 ] } },
{ "type": "Feature", "properties": { "osmid": 7097363267, "y": 53.8306758, "x": -1.7810208, "highway": null, "street_count": 3 }, "geometry": { "type": "Point", "coordinates": [ -1.7810208, 53.8306758 ] } },
{ "type": "Feature", "properties": { "osmid": 7101279799, "y": 53.8279833, "x": -1.7798004, "highway": null, "street_count": 3 }, "geometry": { "type": "Point", "coordinates": [ -1.7798004, 53.8279833 ] } },
{ "type": "Feature", "properties": { "osmid": 7101279802, "y": 53.8281232, "x": -1.7796091, "highway": null, "street_count": 3 }, "geometry": { "type": "Point", "coordinates": [ -1.7796091, 53.8281232 ] } },
{ "type": "Feature", "properties": { "osmid": 7537917757, "y": 53.8301988, "x": -1.7842779, "highway": null, "street_count": 3 }, "geometry": { "type": "Point", "coordinates": [ -1.7842779, 53.8301988 ] } },
{ "type": "Feature", "properties": { "osmid": 7537917758, "y": 53.8305173, "x": -1.7843022, "highway": null, "street_count": 1 }, "geometry": { "type": "Point", "coordinates": [ -1.7843022, 53.8305173 ] } },
{ "type": "Feature", "properties": { "osmid": 9129998971, "y": 53.8301244, "x": -1.7855294, "highway": null, "street_count": 3 }, "geometry": { "type": "Point", "coordinates": [ -1.7855294, 53.8301244 ] } },
{ "type": "Feature", "properties": { "osmid": 9129998974, "y": 53.8298899, "x": -1.784815, "highway": null, "street_count": 3 }, "geometry": { "type": "Point", "coordinates": [ -1.784815, 53.8298899 ] } },
{ "type": "Feature", "properties": { "osmid": 10857547666, "y": 53.8291911, "x": -1.7866293, "highway": null, "street_count": 3 }, "geometry": { "type": "Point", "coordinates": [ -1.7866293, 53.8291911 ] } },
{ "type": "Feature", "properties": { "osmid": 10857547667, "y": 53.8295925, "x": -1.7870232, "highway": null, "street_count": 3 }, "geometry": { "type": "Point", "coordinates": [ -1.7870232, 53.8295925 ] } },
{ "type": "Feature", "properties": { "osmid": 10857547670, "y": 53.8303018, "x": -1.7860961, "highway": null, "street_count": 3 }, "geometry": { "type": "Point", "coordinates": [ -1.7860961, 53.8303018 ] } },
{ "type": "Feature", "properties": { "osmid": 10857547676, "y": 53.828973, "x": -1.7878312, "highway": null, "street_count": 4 }, "geometry": { "type": "Point", "coordinates": [ -1.7878312, 53.828973 ] } },
{ "type": "Feature", "properties": { "osmid": 10857547687, "y": 53.827703, "x": -1.7874883, "highway": null, "street_count": 3 }, "geometry": { "type": "Point", "coordinates": [ -1.7874883, 53.827703 ] } },
{ "type": "Feature", "properties": { "osmid": 11868890017, "y": 53.8291459, "x": -1.7867185, "highway": null, "street_count": 3 }, "geometry": { "type": "Point", "coordinates": [ -1.7867185, 53.8291459 ] } }
]
}
