{
"type": "FeatureCollection",
"name": "osm_park_entrances",
"crs": { "type": "name", "properties": { "name": "urn:ogc:def:crs:OGC::CRS84" } },
"features": [
{ "type": "Feature", "properties": { "park_name": "Russell Hall Park", "park_id": "park_0", "entrance_id": "park_0_osm_entrance_1", "longitude": -1.8477182, "latitude": 53.7653697, "osm_entrance_type": "unknown", "osm_barrier_type": "entrance", "osm_id": "unknown" }, "geometry": { "type": "Point", "coordinates": [ -1.8477182, 53.7653697 ] } },
{ "type": "Feature", "properties": { "park_name": "Knowles Park", "park_id": "park_4", "entrance_id": "park_4_osm_entrance_1", "longitude": -1.7193055, "latitude": 53.7717837, "osm_entrance_type": "unknown", "osm_barrier_type": "gate", "osm_id": "unknown" }, "geometry": { "type": "Point", "coordinates": [ -1.7193055, 53.7717837 ] } },
{ "type": "Feature", "properties": { "park_name": "Seymour Street Recreation Ground", "park_id": "park_5", "entrance_id": "park_5_osm_entrance_1", "longitude": -1.7332576, "latitude": 53.7941429, "osm_entrance_type": "unknown", "osm_barrier_type": "gate", "osm_id": "unknown" }, "geometry": { "type": "Point", "coordinates": [ -1.7332576, 53.7941429 ] } },
{ "type": "Feature", "properties": { "park_name": "Wibsey Park", "park_id": "park_8", "entrance_id": "park_8_osm_entrance_1", "longitude": -1.7835544, "latitude": 53.7666368, "osm_entrance_type": "unknown", "osm_barrier_type": "gate", "osm_id": "unknown" }, "geometry": { "type": "Point", "coordinates": [ -1.7835544, 53.7666368 ] } },
{ "type": "Feature", "properties": { "park_name": "Wibsey Park", "park_id": "park_8", "entrance_id": "park_8_osm_entrance_2", "longitude": -1.784978, "latitude": 53.7672462, "osm_entrance_type": "unknown", "osm_barrier_type": "gate", "osm_id": "unknown" }, "geometry": { "type": "Point", "coordinates": [ -1.784978, 53.7672462 ] } },
{ "type": "Feature", "properties": { "park_name": "Wibsey Park", "park_id": "park_8", "entrance_id": "park_8_osm_entrance_3", "longitude": -1.7856018, "latitude": 53.7672244, "osm_entrance_type": "unknown", "osm_barrier_type": "gate", "osm_id": "unknown" }, "geometry": { "type": "Point", "coordinates": [ -1.7856018, 53.7672244 ] } },
{ "type": "Feature", "properties": { "park_name": "Wibsey Park", "park_id": "park_8", "entrance_id": "park_8_osm_entrance_4", "longitude": -1.7842871, "latitude": 53.7673923, "osm_entrance_type": "unknown", "osm_barrier_type": "gate", "osm_id": "unknown" }, "geometry": { "type": "Point", "coordinates": [ -1.7842871, 53.7673923 ] } },
{ "type": "Feature", "properties": { "park_name": "Peel Park", "park_id": "park_10", "entrance_id": "park_10_osm_entrance_1", "longitude": -1.7454891, "latitude": 53.8105638, "osm_entrance_type": "unknown", "osm_barrier_type": "gate", "osm_id": "unknown" }, "geometry": { "type": "Point", "coordinates": [ -1.7454891, 53.8105638 ] } },
{ "type": "Feature", "properties": { "park_name": "Peel Park", "park_id": "park_10", "entrance_id": "park_10_osm_entrance_2", "longitude": -1.7394071, "latitude": 53.8109359, "osm_entrance_type": "unknown", "osm_barrier_type": "gate", "osm_id": "unknown" }, "geometry": { "type": "Point", "coordinates": [ -1.7394071, 53.8109359 ] } },
{ "type": "Feature", "properties": { "park_name": "Lund Park", "park_id": "park_11", "entrance_id": "park_11_osm_entrance_1", "longitude": -1.9189704, "latitude": 53.8598835, "osm_entrance_type": "unknown", "osm_barrier_type": "gate", "osm_id": "unknown" }, "geometry": { "type": "Point", "coordinates": [ -1.9189704, 53.8598835 ] } },
{ "type": "Feature", "properties": { "park_name": "Ladyhill Park", "park_id": "park_13", "entrance_id": "park_13_osm_entrance_1", "longitude": -1.8141824, "latitude": 53.8027811, "osm_entrance_type": "unknown", "osm_barrier_type": "gate", "osm_id": "unknown" }, "geometry": { "type": "Point", "coordinates": [ -1.8141824, 53.8027811 ] } },
{ "type": "Feature", "properties": { "park_name": "Ladyhill Park", "park_id": "park_13", "entrance_id": "park_13_osm_entrance_2", "longitude": -1.8139919, "latitude": 53.8030592, "osm_entrance_type": "unknown", "osm_barrier_type": "gate", "osm_id": "unknown" }, "geometry": { "type": "Point", "coordinates": [ -1.8139919, 53.8030592 ] } },
{ "type": "Feature", "properties": { "park_name": "Horton Park", "park_id": "park_14", "entrance_id": "park_14_osm_entrance_1", "longitude": -1.7711929, "latitude": 53.7846059, "osm_entrance_type": "unknown", "osm_barrier_type": "gate", "osm_id": "unknown" }, "geometry": { "type": "Point", "coordinates": [ -1.7711929, 53.7846059 ] } },
{ "type": "Feature", "properties": { "park_name": "Foster Park", "park_id": "park_15", "entrance_id": "park_15_osm_entrance_1", "longitude": -1.892741, "latitude": 53.8031774, "osm_entrance_type": null, "osm_barrier_type": "gate", "osm_id": "unknown" }, "geometry": { "type": "Point", "coordinates": [ -1.892741, 53.8031774 ] } },
{ "type": "Feature", "properties": { "park_name": "Brackenhill Park", "park_id": "park_19", "entrance_id": "park_19_osm_entrance_1", "longitude": -1.7932326, "latitude": 53.781181, "osm_entrance_type": "unknown", "osm_barrier_type": "gate", "osm_id": "unknown" }, "geometry": { "type": "Point", "coordinates": [ -1.7932326, 53.781181 ] } },
{ "type": "Feature", "properties": { "park_name": "Brackenhill Park", "park_id": "park_19", "entrance_id": "park_19_osm_entrance_2", "longitude": -1.7967998, "latitude": 53.7818227, "osm_entrance_type": "unknown", "osm_barrier_type": "gate", "osm_id": "unknown" }, "geometry": { "type": "Point", "coordinates": [ -1.7967998, 53.7818227 ] } },
{ "type": "Feature", "properties": { "park_name": "Brackenhill Park", "park_id": "park_19", "entrance_id": "park_19_osm_entrance_3", "longitude": -1.798275, "latitude": 53.7802455, "osm_entrance_type": "unknown", "osm_barrier_type": "gate", "osm_id": "unknown" }, "geometry": { "type": "Point", "coordinates": [ -1.798275, 53.7802455 ] } },
{ "type": "Feature", "properties": { "park_name": "Lister Park", "park_id": "park_20", "entrance_id": "park_20_osm_entrance_1", "longitude": -1.7729364, "latitude": 53.8154774, "osm_entrance_type": null, "osm_barrier_type": "gate", "osm_id": "unknown" }, "geometry": { "type": "Point", "coordinates": [ -1.7729364, 53.8154774 ] } },
{ "type": "Feature", "properties": { "park_name": "Lister Park", "park_id": "park_20", "entrance_id": "park_20_osm_entrance_2", "longitude": -1.772205, "latitude": 53.8110935, "osm_entrance_type": null, "osm_barrier_type": "gate", "osm_id": "unknown" }, "geometry": { "type": "Point", "coordinates": [ -1.772205, 53.8110935 ] } },
{ "type": "Feature", "properties": { "park_name": "Lister Park", "park_id": "park_20", "entrance_id": "park_20_osm_entrance_3", "longitude": -1.7710673, "latitude": 53.81089, "osm_entrance_type": null, "osm_barrier_type": "gate", "osm_id": "unknown" }, "geometry": { "type": "Point", "coordinates": [ -1.7710673, 53.81089 ] } },
{ "type": "Feature", "properties": { "park_name": "Lister Park", "park_id": "park_20", "entrance_id": "park_20_osm_entrance_4", "longitude": -1.7703137, "latitude": 53.8125648, "osm_entrance_type": null, "osm_barrier_type": "entrance", "osm_id": "unknown" }, "geometry": { "type": "Point", "coordinates": [ -1.7703137, 53.8125648 ] } },
{ "type": "Feature", "properties": { "park_name": "Lister Park", "park_id": "park_20", "entrance_id": "park_20_osm_entrance_5", "longitude": -1.7705494, "latitude": 53.8129341, "osm_entrance_type": null, "osm_barrier_type": "entrance", "osm_id": "unknown" }, "geometry": { "type": "Point", "coordinates": [ -1.7705494, 53.8129341 ] } },
{ "type": "Feature", "properties": { "park_name": "Lister Park", "park_id": "park_20", "entrance_id": "park_20_osm_entrance_6", "longitude": -1.7763509, "latitude": 53.8127806, "osm_entrance_type": null, "osm_barrier_type": "gate", "osm_id": "unknown" }, "geometry": { "type": "Point", "coordinates": [ -1.7763509, 53.8127806 ] } },
{ "type": "Feature", "properties": { "park_name": "Lister Park", "park_id": "park_20", "entrance_id": "park_20_osm_entrance_7", "longitude": -1.774811, "latitude": 53.8132079, "osm_entrance_type": null, "osm_barrier_type": "gate", "osm_id": "unknown" }, "geometry": { "type": "Point", "coordinates": [ -1.774811, 53.8132079 ] } },
{ "type": "Feature", "properties": { "park_name": "Lister Park", "park_id": "park_20", "entrance_id": "park_20_osm_entrance_8", "longitude": -1.7719568, "latitude": 53.8122359, "osm_entrance_type": "yes", "osm_barrier_type": null, "osm_id": "unknown" }, "geometry": { "type": "Point", "coordinates": [ -1.7719568, 53.8122359 ] } },
{ "type": "Feature", "properties": { "park_name": "Lister Park", "park_id": "park_20", "entrance_id": "park_20_osm_entrance_9", "longitude": -1.7724083, "latitude": 53.8155004, "osm_entrance_type": "yes", "osm_barrier_type": null, "osm_id": "unknown" }, "geometry": { "type": "Point", "coordinates": [ -1.7724083, 53.8155004 ] } },
{ "type": "Feature", "properties": { "park_name": "Shipley Central Park", "park_id": "park_26", "entrance_id": "park_26_osm_entrance_1", "longitude": -1.7812015, "latitude": 53.8324033, "osm_entrance_type": null, "osm_barrier_type": "gate", "osm_id": "unknown" }, "geometry": { "type": "Point", "coordinates": [ -1.7812015, 53.8324033 ] } },
{ "type": "Feature", "properties": { "park_name": "Shipley Central Park", "park_id": "park_26", "entrance_id": "park_26_osm_entrance_2", "longitude": -1.7821788, "latitude": 53.8322793, "osm_entrance_type": null, "osm_barrier_type": "gate", "osm_id": "unknown" }, "geometry": { "type": "Point", "coordinates": [ -1.7821788, 53.8322793 ] } },
{ "type": "Feature", "properties": { "park_name": "Myrtle Park", "park_id": "park_35", "entrance_id": "park_35_osm_entrance_1", "longitude": -1.8400281, "latitude": 53.8469587, "osm_entrance_type": null, "osm_barrier_type": "gate", "osm_id": "unknown" }, "geometry": { "type": "Point", "coordinates": [ -1.8400281, 53.8469587 ] } },
{ "type": "Feature", "properties": { "park_name": "Cliffe Castle Museum & Park", "park_id": "park_39", "entrance_id": "park_39_osm_entrance_1", "longitude": -1.913632, "latitude": 53.8748099, "osm_entrance_type": "yes", "osm_barrier_type": null, "osm_id": "unknown" }, "geometry": { "type": "Point", "coordinates": [ -1.913632, 53.8748099 ] } }
]
}
