{
"type": "FeatureCollection",
"name": "park_entrances",
"crs": { "type": "name", "properties": { "name": "urn:ogc:def:crs:OGC::CRS84" } },
"features": [
{ "type": "Feature", "properties": { "park_name": "Russell Hall Park", "park_id": "park_0", "entrance_id": "park_0_entrance_1", "longitude": -1.8495519229984703, "latitude": 53.76555970101878 }, "geometry": { "type": "Point", "coordinates": [ -1.84955192299847, 53.76555970101878 ] } },
{ "type": "Feature", "properties": { "park_name": "Russell Hall Park", "park_id": "park_0", "entrance_id": "park_0_entrance_2", "longitude": -1.8486938714764107, "latitude": 53.764210468107734 }, "geometry": { "type": "Point", "coordinates": [ -1.848693871476411, 53.764210468107734 ] } },
{ "type": "Feature", "properties": { "park_name": "Russell Hall Park", "park_id": "park_0", "entrance_id": "park_0_entrance_3", "longitude": -1.847719945158689, "latitude": 53.76536557567033 }, "geometry": { "type": "Point", "coordinates": [ -1.847719945158689, 53.76536557567033 ] } },
{ "type": "Feature", "properties": { "park_name": "Greenwood Park", "park_id": "park_1", "entrance_id": "park_1_entrance_1", "longitude": -1.8341886132230629, "latitude": 53.815264947334398 }, "geometry": { "type": "Point", "coordinates": [ -1.834188613223063, 53.815264947334398 ] } },
{ "type": "Feature", "properties": { "park_name": "Greenwood Park", "park_id": "park_1", "entrance_id": "park_1_entrance_2", "longitude": -1.8339782297754128, "latitude": 53.81363055107925 }, "geometry": { "type": "Point", "coordinates": [ -1.833978229775413, 53.81363055107925 ] } },
{ "type": "Feature", "properties": { "park_name": "Greenwood Park", "park_id": "park_1", "entrance_id": "park_1_entrance_3", "longitude": -1.8335600223660697, "latitude": 53.815115692604287 }, "geometry": { "type": "Point", "coordinates": [ -1.83356002236607, 53.815115692604287 ] } },
{ "type": "Feature", "properties": { "park_name": "Grange Park", "park_id": "park_2", "entrance_id": "park_2_entrance_1", "longitude": -1.7503451296717534, "latitude": 53.913191806085202 }, "geometry": { "type": "Point", "coordinates": [ -1.750345129671753, 53.913191806085202 ] } },
{ "type": "Feature", "properties": { "park_name": "Grange Park", "park_id": "park_2", "entrance_id": "park_2_entrance_2", "longitude": -1.7500843609568479, "latitude": 53.913578895897366 }, "geometry": { "type": "Point", "coordinates": [ -1.750084360956848, 53.913578895897366 ] } },
{ "type": "Feature", "properties": { "park_name": "Grange Park", "park_id": "park_2", "entrance_id": "park_2_entrance_3", "longitude": -1.749857, "latitude": 53.9132638 }, "geometry": { "type": "Point", "coordinates": [ -1.749857, 53.9132638 ] } },
{ "type": "Feature", "properties": { "park_name": "Grange Park", "park_id": "park_2", "entrance_id": "park_2_entrance_4", "longitude": -1.749828036886266, "latitude": 53.912403347083696 }, "geometry": { "type": "Point", "coordinates": [ -1.749828036886266, 53.912403347083696 ] } },
{ "type": "Feature", "properties": { "park_name": "Grange Park", "park_id": "park_2", "entrance_id": "park_2_entrance_5", "longitude": -1.7496446552680158, "latitude": 53.913669427079306 }, "geometry": { "type": "Point", "coordinates": [ -1.749644655268016, 53.913669427079306 ] } },
{ "type": "Feature", "properties": { "park_name": "Grange Park", "park_id": "park_2", "entrance_id": "park_2_entrance_6", "longitude": -1.7494674103544388, "latitude": 53.91240248605736 }, "geometry": { "type": "Point", "coordinates": [ -1.749467410354439, 53.91240248605736 ] } },
{ "type": "Feature", "properties": { "park_name": "Grange Park", "park_id": "park_2", "entrance_id": "park_2_entrance_7", "longitude": -1.7494486913631873, "latitude": 53.913651927644942 }, "geometry": { "type": "Point", "coordinates": [ -1.749448691363187, 53.913651927644942 ] } },
{ "type": "Feature", "properties": { "park_name": "Grange Park", "park_id": "park_2", "entrance_id": "park_2_entrance_8", "longitude": -1.7492587839907161, "latitude": 53.913632665439216 }, "geometry": { "type": "Point", "coordinates": [ -1.749258783990716, 53.913632665439216 ] } },
{ "type": "Feature", "properties": { "park_name": "Grange Park", "park_id": "park_2", "entrance_id": "park_2_entrance_9", "longitude": -1.7491818056021715, "latitude": 53.913612118726121 }, "geometry": { "type": "Point", "coordinates": [ -1.749181805602172, 53.913612118726121 ] } },
{ "type": "Feature", "properties": { "park_name": "Grange Park", "park_id": "park_2", "entrance_id": "park_2_entrance_10", "longitude": -1.7489657768750539, "latitude": 53.913560276781091 }, "geometry": { "type": "Point", "coordinates": [ -1.748965776875054, 53.913560276781091 ] } },
{ "type": "Feature", "properties": { "park_name": "Grange Park", "park_id": "park_2", "entrance_id": "park_2_entrance_11", "longitude": -1.7489319995191621, "latitude": 53.912401207718723 }, "geometry": { "type": "Point", "coordinates": [ -1.748931999519162, 53.912401207718723 ] } },
{ "type": "Feature", "properties": { "park_name": "Grange Park", "park_id": "park_2", "entrance_id": "park_2_entrance_12", "longitude": -1.7488326753040841, "latitude": 53.913544063376015 }, "geometry": { "type": "Point", "coordinates": [ -1.748832675304084, 53.913544063376015 ] } },
{ "type": "Feature", "properties": { "park_name": "Grange Park", "park_id": "park_2", "entrance_id": "park_2_entrance_13", "longitude": -1.7487072668126484, "latitude": 53.91351003418616 }, "geometry": { "type": "Point", "coordinates": [ -1.748707266812648, 53.91351003418616 ] } },
{ "type": "Feature", "properties": { "park_name": "Grange Park", "park_id": "park_2", "entrance_id": "park_2_entrance_14", "longitude": -1.7485942646850117, "latitude": 53.912400401348251 }, "geometry": { "type": "Point", "coordinates": [ -1.748594264685012, 53.912400401348251 ] } },
{ "type": "Feature", "properties": { "park_name": "Grange Park", "park_id": "park_2", "entrance_id": "park_2_entrance_15", "longitude": -1.7483989294583573, "latitude": 53.91248642608646 }, "geometry": { "type": "Point", "coordinates": [ -1.748398929458357, 53.91248642608646 ] } },
{ "type": "Feature", "properties": { "park_name": "Grange Park", "park_id": "park_2", "entrance_id": "park_2_entrance_16", "longitude": -1.7483497363795784, "latitude": 53.913413019455746 }, "geometry": { "type": "Point", "coordinates": [ -1.748349736379578, 53.913413019455746 ] } },
{ "type": "Feature", "properties": { "park_name": "Grange Park", "park_id": "park_2", "entrance_id": "park_2_entrance_17", "longitude": -1.7478569521841647, "latitude": 53.913395155802576 }, "geometry": { "type": "Point", "coordinates": [ -1.747856952184165, 53.913395155802576 ] } },
{ "type": "Feature", "properties": { "park_name": "Foxhill Park", "park_id": "park_3", "entrance_id": "park_3_entrance_1", "longitude": -1.8547924659593293, "latitude": 53.772240109958332 }, "geometry": { "type": "Point", "coordinates": [ -1.854792465959329, 53.772240109958332 ] } },
{ "type": "Feature", "properties": { "park_name": "Foxhill Park", "park_id": "park_3", "entrance_id": "park_3_entrance_2", "longitude": -1.8536134355992269, "latitude": 53.771624001805584 }, "geometry": { "type": "Point", "coordinates": [ -1.853613435599227, 53.771624001805584 ] } },
{ "type": "Feature", "properties": { "park_name": "Knowles Park", "park_id": "park_4", "entrance_id": "park_4_entrance_1", "longitude": -1.7218849900391708, "latitude": 53.771996781759228 }, "geometry": { "type": "Point", "coordinates": [ -1.721884990039171, 53.771996781759228 ] } },
{ "type": "Feature", "properties": { "park_name": "Knowles Park", "park_id": "park_4", "entrance_id": "park_4_entrance_2", "longitude": -1.7205534273332739, "latitude": 53.773020703181736 }, "geometry": { "type": "Point", "coordinates": [ -1.720553427333274, 53.773020703181736 ] } },
{ "type": "Feature", "properties": { "park_name": "Knowles Park", "park_id": "park_4", "entrance_id": "park_4_entrance_3", "longitude": -1.7198622716695735, "latitude": 53.771076121485137 }, "geometry": { "type": "Point", "coordinates": [ -1.719862271669574, 53.771076121485137 ] } },
{ "type": "Feature", "properties": { "park_name": "Knowles Park", "park_id": "park_4", "entrance_id": "park_4_entrance_4", "longitude": -1.7190756899085304, "latitude": 53.77157493343956 }, "geometry": { "type": "Point", "coordinates": [ -1.71907568990853, 53.77157493343956 ] } },
{ "type": "Feature", "properties": { "park_name": "Knowles Park", "park_id": "park_4", "entrance_id": "park_4_entrance_5", "longitude": -1.7188604991993035, "latitude": 53.773681981940108 }, "geometry": { "type": "Point", "coordinates": [ -1.718860499199304, 53.773681981940108 ] } },
{ "type": "Feature", "properties": { "park_name": "Knowles Park", "park_id": "park_4", "entrance_id": "park_4_entrance_6", "longitude": -1.7182901613040826, "latitude": 53.771751519728774 }, "geometry": { "type": "Point", "coordinates": [ -1.718290161304083, 53.771751519728774 ] } },
{ "type": "Feature", "properties": { "park_name": "Knowles Park", "park_id": "park_4", "entrance_id": "park_4_entrance_7", "longitude": -1.7166109010374562, "latitude": 53.772399860409237 }, "geometry": { "type": "Point", "coordinates": [ -1.716610901037456, 53.772399860409237 ] } },
{ "type": "Feature", "properties": { "park_name": "Seymour Street Recreation Ground", "park_id": "park_5", "entrance_id": "park_5_entrance_1", "longitude": -1.735399311833554, "latitude": 53.793819341639058 }, "geometry": { "type": "Point", "coordinates": [ -1.735399311833554, 53.793819341639058 ] } },
{ "type": "Feature", "properties": { "park_name": "Seymour Street Recreation Ground", "park_id": "park_5", "entrance_id": "park_5_entrance_2", "longitude": -1.7353321272541651, "latitude": 53.794082106672384 }, "geometry": { "type": "Point", "coordinates": [ -1.735332127254165, 53.794082106672384 ] } },
{ "type": "Feature", "properties": { "park_name": "Seymour Street Recreation Ground", "park_id": "park_5", "entrance_id": "park_5_entrance_3", "longitude": -1.734677953158791, "latitude": 53.794205489575212 }, "geometry": { "type": "Point", "coordinates": [ -1.734677953158791, 53.794205489575212 ] } },
{ "type": "Feature", "properties": { "park_name": "Eccleshill Park", "park_id": "park_6", "entrance_id": "park_6_entrance_1", "longitude": -1.7115670915544552, "latitude": 53.824649453731126 }, "geometry": { "type": "Point", "coordinates": [ -1.711567091554455, 53.824649453731126 ] } },
{ "type": "Feature", "properties": { "park_name": "Eccleshill Park", "park_id": "park_6", "entrance_id": "park_6_entrance_2", "longitude": -1.7108856227000877, "latitude": 53.825291315939154 }, "geometry": { "type": "Point", "coordinates": [ -1.710885622700088, 53.825291315939154 ] } },
{ "type": "Feature", "properties": { "park_name": "Eccleshill Park", "park_id": "park_6", "entrance_id": "park_6_entrance_3", "longitude": -1.7108681120137723, "latitude": 53.825247286462854 }, "geometry": { "type": "Point", "coordinates": [ -1.710868112013772, 53.825247286462854 ] } },
{ "type": "Feature", "properties": { "park_name": "Eccleshill Park", "park_id": "park_6", "entrance_id": "park_6_entrance_4", "longitude": -1.7107583660643728, "latitude": 53.824971337445739 }, "geometry": { "type": "Point", "coordinates": [ -1.710758366064373, 53.824971337445739 ] } },
{ "type": "Feature", "properties": { "park_name": "Eccleshill Park", "park_id": "park_6", "entrance_id": "park_6_entrance_5", "longitude": -1.7106831634443243, "latitude": 53.824188251815379 }, "geometry": { "type": "Point", "coordinates": [ -1.710683163444324, 53.824188251815379 ] } },
{ "type": "Feature", "properties": { "park_name": "Cross Roads Park", "park_id": "park_7", "entrance_id": "park_7_entrance_1", "longitude": -1.9329274325222441, "latitude": 53.835333803068202 }, "geometry": { "type": "Point", "coordinates": [ -1.932927432522244, 53.835333803068202 ] } },
{ "type": "Feature", "properties": { "park_name": "Cross Roads Park", "park_id": "park_7", "entrance_id": "park_7_entrance_2", "longitude": -1.9312552677388426, "latitude": 53.836184946443559 }, "geometry": { "type": "Point", "coordinates": [ -1.931255267738843, 53.836184946443559 ] } },
{ "type": "Feature", "properties": { "park_name": "Wibsey Park", "park_id": "park_8", "entrance_id": "park_8_entrance_1", "longitude": -1.7910687732302699, "latitude": 53.76520707564314 }, "geometry": { "type": "Point", "coordinates": [ -1.79106877323027, 53.76520707564314 ] } },
{ "type": "Feature", "properties": { "park_name": "Wibsey Park", "park_id": "park_8", "entrance_id": "park_8_entrance_2", "longitude": -1.7908007775686479, "latitude": 53.766520103213679 }, "geometry": { "type": "Point", "coordinates": [ -1.790800777568648, 53.766520103213679 ] } },
{ "type": "Feature", "properties": { "park_name": "Wibsey Park", "park_id": "park_8", "entrance_id": "park_8_entrance_3", "longitude": -1.7889886579784393, "latitude": 53.767540323366546 }, "geometry": { "type": "Point", "coordinates": [ -1.788988657978439, 53.767540323366546 ] } },
{ "type": "Feature", "properties": { "park_name": "Wibsey Park", "park_id": "park_8", "entrance_id": "park_8_entrance_4", "longitude": -1.7857314052266977, "latitude": 53.76557377046251 }, "geometry": { "type": "Point", "coordinates": [ -1.785731405226698, 53.76557377046251 ] } },
{ "type": "Feature", "properties": { "park_name": "Wibsey Park", "park_id": "park_8", "entrance_id": "park_8_entrance_5", "longitude": -1.7847183413736005, "latitude": 53.768171714415317 }, "geometry": { "type": "Point", "coordinates": [ -1.784718341373601, 53.768171714415317 ] } },
{ "type": "Feature", "properties": { "park_name": "Wibsey Park", "park_id": "park_8", "entrance_id": "park_8_entrance_6", "longitude": -1.7841828493674015, "latitude": 53.766587742013229 }, "geometry": { "type": "Point", "coordinates": [ -1.784182849367401, 53.766587742013229 ] } },
{ "type": "Feature", "properties": { "park_name": "Prince of Wales Park", "park_id": "park_9", "entrance_id": "park_9_entrance_1", "longitude": -1.8288673778674103, "latitude": 53.857485718254097 }, "geometry": { "type": "Point", "coordinates": [ -1.82886737786741, 53.857485718254097 ] } },
{ "type": "Feature", "properties": { "park_name": "Prince of Wales Park", "park_id": "park_9", "entrance_id": "park_9_entrance_2", "longitude": -1.8287575551217685, "latitude": 53.8572519614603 }, "geometry": { "type": "Point", "coordinates": [ -1.828757555121769, 53.8572519614603 ] } },
{ "type": "Feature", "properties": { "park_name": "Prince of Wales Park", "park_id": "park_9", "entrance_id": "park_9_entrance_3", "longitude": -1.828655, "latitude": 53.8562584 }, "geometry": { "type": "Point", "coordinates": [ -1.828655, 53.8562584 ] } },
{ "type": "Feature", "properties": { "park_name": "Prince of Wales Park", "park_id": "park_9", "entrance_id": "park_9_entrance_4", "longitude": -1.8276255539057278, "latitude": 53.858383847312126 }, "geometry": { "type": "Point", "coordinates": [ -1.827625553905728, 53.858383847312126 ] } },
{ "type": "Feature", "properties": { "park_name": "Prince of Wales Park", "park_id": "park_9", "entrance_id": "park_9_entrance_5", "longitude": -1.8263402467288243, "latitude": 53.855844040942685 }, "geometry": { "type": "Point", "coordinates": [ -1.826340246728824, 53.855844040942685 ] } },
{ "type": "Feature", "properties": { "park_name": "Prince of Wales Park", "park_id": "park_9", "entrance_id": "park_9_entrance_6", "longitude": -1.8239833072040414, "latitude": 53.856616699701412 }, "geometry": { "type": "Point", "coordinates": [ -1.823983307204041, 53.856616699701412 ] } },
{ "type": "Feature", "properties": { "park_name": "Prince of Wales Park", "park_id": "park_9", "entrance_id": "park_9_entrance_7", "longitude": -1.8239601461686989, "latitude": 53.856693890579614 }, "geometry": { "type": "Point", "coordinates": [ -1.823960146168699, 53.856693890579614 ] } },
{ "type": "Feature", "properties": { "park_name": "Peel Park", "park_id": "park_10", "entrance_id": "park_10_entrance_1", "longitude": -1.750472470036776, "latitude": 53.808008144630428 }, "geometry": { "type": "Point", "coordinates": [ -1.750472470036776, 53.808008144630428 ] } },
{ "type": "Feature", "properties": { "park_name": "Peel Park", "park_id": "park_10", "entrance_id": "park_10_entrance_2", "longitude": -1.7466206458347899, "latitude": 53.810029923248813 }, "geometry": { "type": "Point", "coordinates": [ -1.74662064583479, 53.810029923248813 ] } },
{ "type": "Feature", "properties": { "park_name": "Peel Park", "park_id": "park_10", "entrance_id": "park_10_entrance_3", "longitude": -1.7454791671912251, "latitude": 53.81056403183419 }, "geometry": { "type": "Point", "coordinates": [ -1.745479167191225, 53.81056403183419 ] } },
{ "type": "Feature", "properties": { "park_name": "Peel Park", "park_id": "park_10", "entrance_id": "park_10_entrance_4", "longitude": -1.7430384786711164, "latitude": 53.80559917803123 }, "geometry": { "type": "Point", "coordinates": [ -1.743038478671116, 53.80559917803123 ] } },
{ "type": "Feature", "properties": { "park_name": "Peel Park", "park_id": "park_10", "entrance_id": "park_10_entrance_5", "longitude": -1.7417567564634284, "latitude": 53.806598241116241 }, "geometry": { "type": "Point", "coordinates": [ -1.741756756463428, 53.806598241116241 ] } },
{ "type": "Feature", "properties": { "park_name": "Peel Park", "park_id": "park_10", "entrance_id": "park_10_entrance_6", "longitude": -1.7393978394945069, "latitude": 53.810938826342358 }, "geometry": { "type": "Point", "coordinates": [ -1.739397839494507, 53.810938826342358 ] } },
{ "type": "Feature", "properties": { "park_name": "Peel Park", "park_id": "park_10", "entrance_id": "park_10_entrance_7", "longitude": -1.7387469749079791, "latitude": 53.808760525587168 }, "geometry": { "type": "Point", "coordinates": [ -1.738746974907979, 53.808760525587168 ] } },
{ "type": "Feature", "properties": { "park_name": "Peel Park", "park_id": "park_10", "entrance_id": "park_10_entrance_8", "longitude": -1.7367258072584766, "latitude": 53.810424695671209 }, "geometry": { "type": "Point", "coordinates": [ -1.736725807258477, 53.810424695671209 ] } },
{ "type": "Feature", "properties": { "park_name": "Peel Park", "park_id": "park_10", "entrance_id": "park_10_entrance_9", "longitude": -1.7364754668016149, "latitude": 53.810797198388443 }, "geometry": { "type": "Point", "coordinates": [ -1.736475466801615, 53.810797198388443 ] } },
{ "type": "Feature", "properties": { "park_name": "Lund Park", "park_id": "park_11", "entrance_id": "park_11_entrance_1", "longitude": -1.9211979039339855, "latitude": 53.86067754569158 }, "geometry": { "type": "Point", "coordinates": [ -1.921197903933985, 53.86067754569158 ] } },
{ "type": "Feature", "properties": { "park_name": "Lund Park", "park_id": "park_11", "entrance_id": "park_11_entrance_2", "longitude": -1.9204411132427268, "latitude": 53.861117195829806 }, "geometry": { "type": "Point", "coordinates": [ -1.920441113242727, 53.861117195829806 ] } },
{ "type": "Feature", "properties": { "park_name": "Lund Park", "park_id": "park_11", "entrance_id": "park_11_entrance_3", "longitude": -1.9190798015264714, "latitude": 53.858832442481408 }, "geometry": { "type": "Point", "coordinates": [ -1.919079801526471, 53.858832442481408 ] } },
{ "type": "Feature", "properties": { "park_name": "Lund Park", "park_id": "park_11", "entrance_id": "park_11_entrance_4", "longitude": -1.9177405490215669, "latitude": 53.861064447426337 }, "geometry": { "type": "Point", "coordinates": [ -1.917740549021567, 53.861064447426337 ] } },
{ "type": "Feature", "properties": { "park_name": "Littlemoor Park", "park_id": "park_12", "entrance_id": "park_12_entrance_1", "longitude": -1.8369663147041704, "latitude": 53.767346544889719 }, "geometry": { "type": "Point", "coordinates": [ -1.83696631470417, 53.767346544889719 ] } },
{ "type": "Feature", "properties": { "park_name": "Littlemoor Park", "park_id": "park_12", "entrance_id": "park_12_entrance_2", "longitude": -1.8353055076632112, "latitude": 53.765701664946683 }, "geometry": { "type": "Point", "coordinates": [ -1.835305507663211, 53.765701664946683 ] } },
{ "type": "Feature", "properties": { "park_name": "Littlemoor Park", "park_id": "park_12", "entrance_id": "park_12_entrance_3", "longitude": -1.8349417472244272, "latitude": 53.768997198761248 }, "geometry": { "type": "Point", "coordinates": [ -1.834941747224427, 53.768997198761248 ] } },
{ "type": "Feature", "properties": { "park_name": "Littlemoor Park", "park_id": "park_12", "entrance_id": "park_12_entrance_4", "longitude": -1.8348378753989583, "latitude": 53.765314327132735 }, "geometry": { "type": "Point", "coordinates": [ -1.834837875398958, 53.765314327132735 ] } },
{ "type": "Feature", "properties": { "park_name": "Littlemoor Park", "park_id": "park_12", "entrance_id": "park_12_entrance_5", "longitude": -1.8323281978979196, "latitude": 53.769213863300514 }, "geometry": { "type": "Point", "coordinates": [ -1.83232819789792, 53.769213863300514 ] } },
{ "type": "Feature", "properties": { "park_name": "Littlemoor Park", "park_id": "park_12", "entrance_id": "park_12_entrance_6", "longitude": -1.8318044118837449, "latitude": 53.7680940964418 }, "geometry": { "type": "Point", "coordinates": [ -1.831804411883745, 53.7680940964418 ] } },
{ "type": "Feature", "properties": { "park_name": "Littlemoor Park", "park_id": "park_12", "entrance_id": "park_12_entrance_7", "longitude": -1.8317611284538675, "latitude": 53.768079493868257 }, "geometry": { "type": "Point", "coordinates": [ -1.831761128453868, 53.768079493868257 ] } },
{ "type": "Feature", "properties": { "park_name": "Littlemoor Park", "park_id": "park_12", "entrance_id": "park_12_entrance_8", "longitude": -1.8317504721635733, "latitude": 53.76804428480461 }, "geometry": { "type": "Point", "coordinates": [ -1.831750472163573, 53.76804428480461 ] } },
{ "type": "Feature", "properties": { "park_name": "Littlemoor Park", "park_id": "park_12", "entrance_id": "park_12_entrance_9", "longitude": -1.8317207659568711, "latitude": 53.767946133600603 }, "geometry": { "type": "Point", "coordinates": [ -1.831720765956871, 53.767946133600603 ] } },
{ "type": "Feature", "properties": { "park_name": "Littlemoor Park", "park_id": "park_12", "entrance_id": "park_12_entrance_10", "longitude": -1.8312283968641463, "latitude": 53.769811794196251 }, "geometry": { "type": "Point", "coordinates": [ -1.831228396864146, 53.769811794196251 ] } },
{ "type": "Feature", "properties": { "park_name": "Littlemoor Park", "park_id": "park_12", "entrance_id": "park_12_entrance_11", "longitude": -1.8307660433684485, "latitude": 53.769314191290228 }, "geometry": { "type": "Point", "coordinates": [ -1.830766043368449, 53.769314191290228 ] } },
{ "type": "Feature", "properties": { "park_name": "Littlemoor Park", "park_id": "park_12", "entrance_id": "park_12_entrance_12", "longitude": -1.8306071569756308, "latitude": 53.767329303649994 }, "geometry": { "type": "Point", "coordinates": [ -1.830607156975631, 53.767329303649994 ] } },
{ "type": "Feature", "properties": { "park_name": "Littlemoor Park", "park_id": "park_12", "entrance_id": "park_12_entrance_13", "longitude": -1.829384181780269, "latitude": 53.765686789978865 }, "geometry": { "type": "Point", "coordinates": [ -1.829384181780269, 53.765686789978865 ] } },
{ "type": "Feature", "properties": { "park_name": "Littlemoor Park", "park_id": "park_12", "entrance_id": "park_12_entrance_14", "longitude": -1.8293812830222052, "latitude": 53.765682896809352 }, "geometry": { "type": "Point", "coordinates": [ -1.829381283022205, 53.765682896809352 ] } },
{ "type": "Feature", "properties": { "park_name": "Horton Park", "park_id": "park_14", "entrance_id": "park_14_entrance_1", "longitude": -1.7796709730732878, "latitude": 53.781199750050064 }, "geometry": { "type": "Point", "coordinates": [ -1.779670973073288, 53.781199750050064 ] } },
{ "type": "Feature", "properties": { "park_name": "Horton Park", "park_id": "park_14", "entrance_id": "park_14_entrance_2", "longitude": -1.7775008548115518, "latitude": 53.782650768089894 }, "geometry": { "type": "Point", "coordinates": [ -1.777500854811552, 53.782650768089894 ] } },
{ "type": "Feature", "properties": { "park_name": "Horton Park", "park_id": "park_14", "entrance_id": "park_14_entrance_3", "longitude": -1.7765395952660552, "latitude": 53.780652402821879 }, "geometry": { "type": "Point", "coordinates": [ -1.776539595266055, 53.780652402821879 ] } },
{ "type": "Feature", "properties": { "park_name": "Horton Park", "park_id": "park_14", "entrance_id": "park_14_entrance_4", "longitude": -1.7719347065549953, "latitude": 53.784314341025329 }, "geometry": { "type": "Point", "coordinates": [ -1.771934706554995, 53.784314341025329 ] } },
{ "type": "Feature", "properties": { "park_name": "Horton Park", "park_id": "park_14", "entrance_id": "park_14_entrance_5", "longitude": -1.7717366056109634, "latitude": 53.782090022976142 }, "geometry": { "type": "Point", "coordinates": [ -1.771736605610963, 53.782090022976142 ] } },
{ "type": "Feature", "properties": { "park_name": "Foster Park", "park_id": "park_15", "entrance_id": "park_15_entrance_1", "longitude": -1.8942069, "latitude": 53.8020774 }, "geometry": { "type": "Point", "coordinates": [ -1.8942069, 53.8020774 ] } },
{ "type": "Feature", "properties": { "park_name": "Foster Park", "park_id": "park_15", "entrance_id": "park_15_entrance_2", "longitude": -1.8934777, "latitude": 53.8014705 }, "geometry": { "type": "Point", "coordinates": [ -1.8934777, 53.8014705 ] } },
{ "type": "Feature", "properties": { "park_name": "Foster Park", "park_id": "park_15", "entrance_id": "park_15_entrance_3", "longitude": -1.8922426999999182, "latitude": 53.8031003 }, "geometry": { "type": "Point", "coordinates": [ -1.892242699999918, 53.803100299999947 ] } },
{ "type": "Feature", "properties": { "park_name": "Foster Park", "park_id": "park_15", "entrance_id": "park_15_entrance_4", "longitude": -1.8914188, "latitude": 53.8027112 }, "geometry": { "type": "Point", "coordinates": [ -1.8914188, 53.8027112 ] } },
{ "type": "Feature", "properties": { "park_name": "Foster Park", "park_id": "park_15", "entrance_id": "park_15_entrance_5", "longitude": -1.8911125, "latitude": 53.8021392 }, "geometry": { "type": "Point", "coordinates": [ -1.8911125, 53.8021392 ] } },
{ "type": "Feature", "properties": { "park_name": "Foster Park", "park_id": "park_15", "entrance_id": "park_15_entrance_6", "longitude": -1.8908962, "latitude": 53.8003162 }, "geometry": { "type": "Point", "coordinates": [ -1.8908962, 53.8003162 ] } },
{ "type": "Feature", "properties": { "park_name": "Foster Park", "park_id": "park_15", "entrance_id": "park_15_entrance_7", "longitude": -1.890698, "latitude": 53.8011904 }, "geometry": { "type": "Point", "coordinates": [ -1.890698, 53.8011904 ] } },
{ "type": "Feature", "properties": { "park_name": "Devonshire Park", "park_id": "park_16", "entrance_id": "park_16_entrance_1", "longitude": -1.9150240785428005, "latitude": 53.87101264533274 }, "geometry": { "type": "Point", "coordinates": [ -1.915024078542801, 53.87101264533274 ] } },
{ "type": "Feature", "properties": { "park_name": "Devonshire Park", "park_id": "park_16", "entrance_id": "park_16_entrance_2", "longitude": -1.9144625098413259, "latitude": 53.870411468568157 }, "geometry": { "type": "Point", "coordinates": [ -1.914462509841326, 53.870411468568157 ] } },
{ "type": "Feature", "properties": { "park_name": "Devonshire Park", "park_id": "park_16", "entrance_id": "park_16_entrance_3", "longitude": -1.9128044985244352, "latitude": 53.870399062203894 }, "geometry": { "type": "Point", "coordinates": [ -1.912804498524435, 53.870399062203894 ] } },
{ "type": "Feature", "properties": { "park_name": "Devonshire Park", "park_id": "park_16", "entrance_id": "park_16_entrance_4", "longitude": -1.9127815945819089, "latitude": 53.872424417291818 }, "geometry": { "type": "Point", "coordinates": [ -1.912781594581909, 53.872424417291818 ] } },
{ "type": "Feature", "properties": { "park_name": "Devonshire Park", "park_id": "park_16", "entrance_id": "park_16_entrance_5", "longitude": -1.9108214956079026, "latitude": 53.87130471203686 }, "geometry": { "type": "Point", "coordinates": [ -1.910821495607903, 53.87130471203686 ] } },
{ "type": "Feature", "properties": { "park_name": "Crowgill Park", "park_id": "park_17", "entrance_id": "park_17_entrance_1", "longitude": -1.7816724509873467, "latitude": 53.833614158460712 }, "geometry": { "type": "Point", "coordinates": [ -1.781672450987347, 53.833614158460712 ] } },
{ "type": "Feature", "properties": { "park_name": "Crowgill Park", "park_id": "park_17", "entrance_id": "park_17_entrance_2", "longitude": -1.7801456201739614, "latitude": 53.834119605590836 }, "geometry": { "type": "Point", "coordinates": [ -1.780145620173961, 53.834119605590836 ] } },
{ "type": "Feature", "properties": { "park_name": "Cross Roads Park", "park_id": "park_18", "entrance_id": "park_18_entrance_1", "longitude": -1.9329274325222441, "latitude": 53.835333803068202 }, "geometry": { "type": "Point", "coordinates": [ -1.932927432522244, 53.835333803068202 ] } },
{ "type": "Feature", "properties": { "park_name": "Cross Roads Park", "park_id": "park_18", "entrance_id": "park_18_entrance_2", "longitude": -1.9312552677388426, "latitude": 53.836184946443559 }, "geometry": { "type": "Point", "coordinates": [ -1.931255267738843, 53.836184946443559 ] } },
{ "type": "Feature", "properties": { "park_name": "Lister Park", "park_id": "park_20", "entrance_id": "park_20_entrance_1", "longitude": -1.7790302584106097, "latitude": 53.815175749550399 }, "geometry": { "type": "Point", "coordinates": [ -1.77903025841061, 53.815175749550399 ] } },
{ "type": "Feature", "properties": { "park_name": "Lister Park", "park_id": "park_20", "entrance_id": "park_20_entrance_2", "longitude": -1.7763504968492629, "latitude": 53.812781446409808 }, "geometry": { "type": "Point", "coordinates": [ -1.776350496849263, 53.812781446409808 ] } },
{ "type": "Feature", "properties": { "park_name": "Lister Park", "park_id": "park_20", "entrance_id": "park_20_entrance_3", "longitude": -1.7763497568658155, "latitude": 53.812781093617069 }, "geometry": { "type": "Point", "coordinates": [ -1.776349756865816, 53.812781093617069 ] } },
{ "type": "Feature", "properties": { "park_name": "Lister Park", "park_id": "park_20", "entrance_id": "park_20_entrance_4", "longitude": -1.7761557747530188, "latitude": 53.815112572965859 }, "geometry": { "type": "Point", "coordinates": [ -1.776155774753019, 53.815112572965859 ] } },
{ "type": "Feature", "properties": { "park_name": "Lister Park", "park_id": "park_20", "entrance_id": "park_20_entrance_5", "longitude": -1.7743562140314033, "latitude": 53.811840633098775 }, "geometry": { "type": "Point", "coordinates": [ -1.774356214031403, 53.811840633098775 ] } },
{ "type": "Feature", "properties": { "park_name": "Lister Park", "park_id": "park_20", "entrance_id": "park_20_entrance_6", "longitude": -1.7728970145322356, "latitude": 53.815471567766345 }, "geometry": { "type": "Point", "coordinates": [ -1.772897014532236, 53.815471567766345 ] } },
{ "type": "Feature", "properties": { "park_name": "Lister Park", "park_id": "park_20", "entrance_id": "park_20_entrance_7", "longitude": -1.772205, "latitude": 53.8110935 }, "geometry": { "type": "Point", "coordinates": [ -1.772205, 53.8110935 ] } },
{ "type": "Feature", "properties": { "park_name": "Lister Park", "park_id": "park_20", "entrance_id": "park_20_entrance_8", "longitude": -1.7710761679504905, "latitude": 53.810890443643991 }, "geometry": { "type": "Point", "coordinates": [ -1.77107616795049, 53.810890443643991 ] } },
{ "type": "Feature", "properties": { "park_name": "Lister Park", "park_id": "park_20", "entrance_id": "park_20_entrance_9", "longitude": -1.7703751861983898, "latitude": 53.813520246574377 }, "geometry": { "type": "Point", "coordinates": [ -1.77037518619839, 53.813520246574377 ] } },
{ "type": "Feature", "properties": { "park_name": "Lister Park", "park_id": "park_20", "entrance_id": "park_20_entrance_10", "longitude": -1.7678883195390125, "latitude": 53.809416242307996 }, "geometry": { "type": "Point", "coordinates": [ -1.767888319539012, 53.809416242307996 ] } },
{ "type": "Feature", "properties": { "park_name": "Lister Park", "park_id": "park_20", "entrance_id": "park_20_entrance_11", "longitude": -1.7677644797040808, "latitude": 53.810908636564861 }, "geometry": { "type": "Point", "coordinates": [ -1.767764479704081, 53.810908636564861 ] } },
{ "type": "Feature", "properties": { "park_name": "Bradford Moor Park", "park_id": "park_21", "entrance_id": "park_21_entrance_1", "longitude": -1.7205145438307139, "latitude": 53.799127508450574 }, "geometry": { "type": "Point", "coordinates": [ -1.720514543830714, 53.799127508450574 ] } },
{ "type": "Feature", "properties": { "park_name": "Bradford Moor Park", "park_id": "park_21", "entrance_id": "park_21_entrance_2", "longitude": -1.7201624745125652, "latitude": 53.802043889724118 }, "geometry": { "type": "Point", "coordinates": [ -1.720162474512565, 53.802043889724118 ] } },
{ "type": "Feature", "properties": { "park_name": "Parkside Park", "park_id": "park_22", "entrance_id": "park_22_entrance_1", "longitude": -1.7521100995033154, "latitude": 53.774173773144945 }, "geometry": { "type": "Point", "coordinates": [ -1.752110099503315, 53.774173773144945 ] } },
{ "type": "Feature", "properties": { "park_name": "Parkside Park", "park_id": "park_22", "entrance_id": "park_22_entrance_2", "longitude": -1.7517434601726687, "latitude": 53.775033255194245 }, "geometry": { "type": "Point", "coordinates": [ -1.751743460172669, 53.775033255194245 ] } },
{ "type": "Feature", "properties": { "park_name": "Parkside Park", "park_id": "park_22", "entrance_id": "park_22_entrance_3", "longitude": -1.751644006567064, "latitude": 53.774942109283018 }, "geometry": { "type": "Point", "coordinates": [ -1.751644006567064, 53.774942109283018 ] } },
{ "type": "Feature", "properties": { "park_name": "Parkside Park", "park_id": "park_22", "entrance_id": "park_22_entrance_4", "longitude": -1.7515840179946132, "latitude": 53.7748871317579 }, "geometry": { "type": "Point", "coordinates": [ -1.751584017994613, 53.7748871317579 ] } },
{ "type": "Feature", "properties": { "park_name": "Parkside Park", "park_id": "park_22", "entrance_id": "park_22_entrance_5", "longitude": -1.7511315, "latitude": 53.7750131 }, "geometry": { "type": "Point", "coordinates": [ -1.7511315, 53.7750131 ] } },
{ "type": "Feature", "properties": { "park_name": "Parkside Park", "park_id": "park_22", "entrance_id": "park_22_entrance_6", "longitude": -1.7511239307751301, "latitude": 53.775011172111959 }, "geometry": { "type": "Point", "coordinates": [ -1.75112393077513, 53.775011172111959 ] } },
{ "type": "Feature", "properties": { "park_name": "Parkside Park", "park_id": "park_22", "entrance_id": "park_22_entrance_7", "longitude": -1.7510881732328258, "latitude": 53.773476147124732 }, "geometry": { "type": "Point", "coordinates": [ -1.751088173232826, 53.773476147124732 ] } },
{ "type": "Feature", "properties": { "park_name": "Parkside Park", "park_id": "park_22", "entrance_id": "park_22_entrance_8", "longitude": -1.7506467482250392, "latitude": 53.774506647898257 }, "geometry": { "type": "Point", "coordinates": [ -1.750646748225039, 53.774506647898257 ] } },
{ "type": "Feature", "properties": { "park_name": "Parkside Park", "park_id": "park_22", "entrance_id": "park_22_entrance_9", "longitude": -1.7505978555897195, "latitude": 53.774381079002431 }, "geometry": { "type": "Point", "coordinates": [ -1.750597855589719, 53.774381079002431 ] } },
{ "type": "Feature", "properties": { "park_name": "Parkside Park", "park_id": "park_22", "entrance_id": "park_22_entrance_10", "longitude": -1.7503211566433361, "latitude": 53.774702028917751 }, "geometry": { "type": "Point", "coordinates": [ -1.750321156643336, 53.774702028917751 ] } },
{ "type": "Feature", "properties": { "park_name": "Judy Woods", "park_id": "park_23", "entrance_id": "park_23_entrance_1", "longitude": -1.8013897335015296, "latitude": 53.755081391678537 }, "geometry": { "type": "Point", "coordinates": [ -1.80138973350153, 53.755081391678537 ] } },
{ "type": "Feature", "properties": { "park_name": "Judy Woods", "park_id": "park_23", "entrance_id": "park_23_entrance_2", "longitude": -1.7960200357959919, "latitude": 53.752991574508535 }, "geometry": { "type": "Point", "coordinates": [ -1.796020035795992, 53.752991574508535 ] } },
{ "type": "Feature", "properties": { "park_name": "Judy Woods", "park_id": "park_23", "entrance_id": "park_23_entrance_3", "longitude": -1.7957965213515645, "latitude": 53.752650241275667 }, "geometry": { "type": "Point", "coordinates": [ -1.795796521351565, 53.752650241275667 ] } },
{ "type": "Feature", "properties": { "park_name": "Judy Woods", "park_id": "park_23", "entrance_id": "park_23_entrance_4", "longitude": -1.7956813213151868, "latitude": 53.75270095798485 }, "geometry": { "type": "Point", "coordinates": [ -1.795681321315187, 53.75270095798485 ] } },
{ "type": "Feature", "properties": { "park_name": "Judy Woods", "park_id": "park_23", "entrance_id": "park_23_entrance_5", "longitude": -1.7952224121186859, "latitude": 53.753571775312842 }, "geometry": { "type": "Point", "coordinates": [ -1.795222412118686, 53.753571775312842 ] } },
{ "type": "Feature", "properties": { "park_name": "Judy Woods", "park_id": "park_23", "entrance_id": "park_23_entrance_6", "longitude": -1.7949052132910814, "latitude": 53.753539361067673 }, "geometry": { "type": "Point", "coordinates": [ -1.794905213291081, 53.753539361067673 ] } },
{ "type": "Feature", "properties": { "park_name": "Judy Woods", "park_id": "park_23", "entrance_id": "park_23_entrance_7", "longitude": -1.794309513829019, "latitude": 53.753552272066401 }, "geometry": { "type": "Point", "coordinates": [ -1.794309513829019, 53.753552272066401 ] } },
{ "type": "Feature", "properties": { "park_name": "Judy Woods", "park_id": "park_23", "entrance_id": "park_23_entrance_8", "longitude": -1.7928599991272407, "latitude": 53.753287024168642 }, "geometry": { "type": "Point", "coordinates": [ -1.792859999127241, 53.753287024168642 ] } },
{ "type": "Feature", "properties": { "park_name": "Judy Woods", "park_id": "park_23", "entrance_id": "park_23_entrance_9", "longitude": -1.7913351935101711, "latitude": 53.753081469212695 }, "geometry": { "type": "Point", "coordinates": [ -1.791335193510171, 53.753081469212695 ] } },
{ "type": "Feature", "properties": { "park_name": "Judy Woods", "park_id": "park_23", "entrance_id": "park_23_entrance_10", "longitude": -1.788117324983602, "latitude": 53.744179731195572 }, "geometry": { "type": "Point", "coordinates": [ -1.788117324983602, 53.744179731195572 ] } },
{ "type": "Feature", "properties": { "park_name": "Judy Woods", "park_id": "park_23", "entrance_id": "park_23_entrance_11", "longitude": -1.7867176941155209, "latitude": 53.741782493021582 }, "geometry": { "type": "Point", "coordinates": [ -1.786717694115521, 53.741782493021582 ] } },
{ "type": "Feature", "properties": { "park_name": "Judy Woods", "park_id": "park_23", "entrance_id": "park_23_entrance_12", "longitude": -1.7854654930141485, "latitude": 53.742884894279676 }, "geometry": { "type": "Point", "coordinates": [ -1.785465493014148, 53.742884894279676 ] } },
{ "type": "Feature", "properties": { "park_name": "Judy Woods", "park_id": "park_23", "entrance_id": "park_23_entrance_13", "longitude": -1.7841352349515613, "latitude": 53.743920227346344 }, "geometry": { "type": "Point", "coordinates": [ -1.784135234951561, 53.743920227346344 ] } },
{ "type": "Feature", "properties": { "park_name": "Judy Woods", "park_id": "park_23", "entrance_id": "park_23_entrance_14", "longitude": -1.7826755457138672, "latitude": 53.746610491351888 }, "geometry": { "type": "Point", "coordinates": [ -1.782675545713867, 53.746610491351888 ] } },
{ "type": "Feature", "properties": { "park_name": "Judy Woods", "park_id": "park_23", "entrance_id": "park_23_entrance_15", "longitude": -1.7802138892785579, "latitude": 53.736665215728891 }, "geometry": { "type": "Point", "coordinates": [ -1.780213889278558, 53.736665215728891 ] } },
{ "type": "Feature", "properties": { "park_name": "Judy Woods", "park_id": "park_23", "entrance_id": "park_23_entrance_16", "longitude": -1.7783111232055475, "latitude": 53.737829407724242 }, "geometry": { "type": "Point", "coordinates": [ -1.778311123205548, 53.737829407724242 ] } },
{ "type": "Feature", "properties": { "park_name": "Silsden Park", "park_id": "park_25", "entrance_id": "park_25_entrance_1", "longitude": -1.936143721341826, "latitude": 53.915300467767374 }, "geometry": { "type": "Point", "coordinates": [ -1.936143721341826, 53.915300467767374 ] } },
{ "type": "Feature", "properties": { "park_name": "Silsden Park", "park_id": "park_25", "entrance_id": "park_25_entrance_2", "longitude": -1.9360699193858453, "latitude": 53.914176578102428 }, "geometry": { "type": "Point", "coordinates": [ -1.936069919385845, 53.914176578102428 ] } },
{ "type": "Feature", "properties": { "park_name": "Silsden Park", "park_id": "park_25", "entrance_id": "park_25_entrance_3", "longitude": -1.9349768472635542, "latitude": 53.913370601341718 }, "geometry": { "type": "Point", "coordinates": [ -1.934976847263554, 53.913370601341718 ] } },
{ "type": "Feature", "properties": { "park_name": "Silsden Park", "park_id": "park_25", "entrance_id": "park_25_entrance_4", "longitude": -1.9346790585390141, "latitude": 53.915176262126678 }, "geometry": { "type": "Point", "coordinates": [ -1.934679058539014, 53.915176262126678 ] } },
{ "type": "Feature", "properties": { "park_name": "Silsden Park", "park_id": "park_25", "entrance_id": "park_25_entrance_5", "longitude": -1.9312227529571095, "latitude": 53.914830680813481 }, "geometry": { "type": "Point", "coordinates": [ -1.93122275295711, 53.914830680813481 ] } },
{ "type": "Feature", "properties": { "park_name": "Shipley Central Park", "park_id": "park_26", "entrance_id": "park_26_entrance_1", "longitude": -1.7828802108203174, "latitude": 53.831665839613841 }, "geometry": { "type": "Point", "coordinates": [ -1.782880210820317, 53.831665839613841 ] } },
{ "type": "Feature", "properties": { "park_name": "Shipley Central Park", "park_id": "park_26", "entrance_id": "park_26_entrance_2", "longitude": -1.7826521117077954, "latitude": 53.830652918266026 }, "geometry": { "type": "Point", "coordinates": [ -1.782652111707795, 53.830652918266026 ] } },
{ "type": "Feature", "properties": { "park_name": "Shipley Central Park", "park_id": "park_26", "entrance_id": "park_26_entrance_3", "longitude": -1.7813536379094377, "latitude": 53.830628769654382 }, "geometry": { "type": "Point", "coordinates": [ -1.781353637909438, 53.830628769654382 ] } },
{ "type": "Feature", "properties": { "park_name": "Shipley Central Park", "park_id": "park_26", "entrance_id": "park_26_entrance_4", "longitude": -1.781163110105404, "latitude": 53.83200316035493 }, "geometry": { "type": "Point", "coordinates": [ -1.781163110105404, 53.83200316035493 ] } }
]
}
